{
"type": "FeatureCollection",
"name": "jalan",
"crs": { "type": "name", "properties": { "name": "urn:ogc:def:crs:OGC:1.3:CRS84" } },
"features": [
{ "type": "Feature", "properties": { "id": 2867, "type": "Jalan Kabupaten", "kondisi": "Baik", "status": "Jalan Kabupaten", "ruas": "Dukuh Cilik - Igir Klanceng", "id_ruas": 102, "kode_ruas": null, "panjang_m": 307.04939379699999, "sumber": "Peta RBI/RTRW Provinsi Jawa Tengah/RTRW Kabupaten Brebes/Digitasi Tahun 2026", "lebar_m": 0, "perkerasan": "Aspal" }, "geometry": { "type": "MultiLineString", "coordinates": [ [ [ 109.131718549426807, -7.248187633536049, 0.0 ], [ 109.131739936000088, -7.248167522999952, 0.0 ], [ 109.132000207000033, -7.247812252999951, 0.0 ], [ 109.132163897000055, -7.247598278999936, 0.0 ], [ 109.132207141000038, -7.247448245999982, 0.0 ], [ 109.132190055000066, -7.247215654999932, 0.0 ], [ 109.132112168000049, -7.246981592999933, 0.0 ], [ 109.132094477000066, -7.246948456999971, 0.0 ], [ 109.132068265000029, -7.246918123999937, 0.0 ], [ 109.131684965000034, -7.246474597999962, 0.0 ], [ 109.13134085300004, -7.246002129999969, 0.0 ], [ 109.131298506000064, -7.245936506999963, 0.0 ], [ 109.13128828900004, -7.245924511999939, 0.0 ], [ 109.131269536000048, -7.245907347999964, 0.0 ] ] ] } },
{ "type": "Feature", "properties": { "id": 2865, "type": "Jalan Desa", "kondisi": "Baik", "status": "Jalan Desa", "ruas": "Dawuhan 2", "id_ruas": 35, "kode_ruas": null, "panjang_m": 50.931988039700002, "sumber": "Peta RBI/RTRW Provinsi Jawa Tengah/RTRW Kabupaten Brebes/Digitasi Tahun 2026", "lebar_m": 0, "perkerasan": "Aspal" }, "geometry": { "type": "MultiLineString", "coordinates": [ [ [ 109.123897453593145, -7.241838645754503, 0.0 ], [ 109.124036445703609, -7.241406216008905, 0.0 ] ] ] } },
{ "type": "Feature", "properties": { "id": 2866, "type": "Jalan Desa", "kondisi": "Baik", "status": "Jalan Desa", "ruas": "Dawuhan 1", "id_ruas": 34, "kode_ruas": null, "panjang_m": 120.780485938, "sumber": "Peta RBI/RTRW Provinsi Jawa Tengah/RTRW Kabupaten Brebes/Digitasi Tahun 2026", "lebar_m": 0, "perkerasan": "Aspal" }, "geometry": { "type": "MultiLineString", "coordinates": [ [ [ 109.122728197304184, -7.241418780211008, 0.0 ], [ 109.122929104038121, -7.241104589583196, 0.0 ], [ 109.123042128435756, -7.241165265838847, 0.0 ], [ 109.123257469656892, -7.24084879752508, 0.0 ], [ 109.123346699444525, -7.240675096871647, 0.0 ] ] ] } },
{ "type": "Feature", "properties": { "id": 2812, "type": "Jalan Kabupaten", "kondisi": "Rusak", "status": "Jalan Kabupaten", "ruas": "Semangkung - Guci", "id_ruas": 101, "kode_ruas": null, "panjang_m": 4185.28393, "sumber": "Peta RBI/RTRW Provinsi Jawa Tengah/RTRW Kabupaten Brebes/Digitasi Tahun 2026", "lebar_m": 0, "perkerasan": "Aspal" }, "geometry": { "type": "MultiLineString", "coordinates": [ [ [ 109.109514187000087, -7.232478281999947, 0.0 ], [ 109.109434524000108, -7.232758432999974, 0.0 ], [ 109.109319129000113, -7.23310739799996, 0.0 ], [ 109.109262126000047, -7.233232524999927, 0.0 ], [ 109.109230150000187, -7.23331316199994, 0.0 ], [ 109.10920929500017, -7.233379895999947, 0.0 ], [ 109.109205124000155, -7.233446630999959, 0.0 ], [ 109.10921485600015, -7.233509193999984, 0.0 ], [ 109.109225979000186, -7.233577318999932, 0.0 ], [ 109.109256565000052, -7.23367741999991, 0.0 ], [ 109.109310787000169, -7.233771960999949, 0.0 ], [ 109.109387253000151, -7.233951308999953, 0.0 ], [ 109.109435219000034, -7.234132742999924, 0.0 ], [ 109.109456073000104, -7.234249527999967, 0.0 ], [ 109.109495697000057, -7.234565820999943, 0.0 ], [ 109.109533235000143, -7.234882808999947, 0.0 ], [ 109.109545747000155, -7.235142794999931, 0.0 ], [ 109.109537406000086, -7.235472295999928, 0.0 ], [ 109.109433133000124, -7.236216106, 0.0 ], [ 109.109407413000113, -7.236476092, 0.0 ], [ 109.109357362000125, -7.236487908999968, 0.0 ], [ 109.109219722000077, -7.236466359999952, 0.0 ], [ 109.109045240000114, -7.236419784999961, 0.0 ], [ 109.10891385700009, -7.236382246999907, 0.0 ], [ 109.108823487000095, -7.236351659999936, 0.0 ], [ 109.108717825000042, -7.236339146999968, 0.0 ], [ 109.108624674000112, -7.236328024999928, 0.0 ], [ 109.108534305, -7.236336366999979, 0.0 ], [ 109.108431423000155, -7.236341927999897, 0.0 ], [ 109.108353566000048, -7.236364172999943, 0.0 ], [ 109.108293783000093, -7.236391978999959, 0.0 ], [ 109.108254855000013, -7.236411442999961, 0.0 ], [ 109.108246513000083, -7.236531008999957, 0.0 ], [ 109.108235391000036, -7.236656134999958, 0.0 ], [ 109.108211756000131, -7.236738162999951, 0.0 ], [ 109.108176998000133, -7.236786823999961, 0.0 ], [ 109.108113045000096, -7.236807677999963, 0.0 ], [ 109.108015724000083, -7.236807677999963, 0.0 ], [ 109.107900329000088, -7.23679238499993, 0.0 ], [ 109.107807179000162, -7.23678960399995, 0.0 ], [ 109.107644514000086, -7.236849386999911, 0.0 ], [ 109.107424847000061, -7.236904998999941, 0.0 ], [ 109.107270523000125, -7.236948097999977, 0.0 ], [ 109.107091175000093, -7.236989806999897, 0.0 ], [ 109.107003586000076, -7.236993977999904, 0.0 ], [ 109.106875679000069, -7.236963390999934, 0.0 ], [ 109.106767235000106, -7.236914730999941, 0.0 ], [ 109.106661573000082, -7.236892485999934, 0.0 ], [ 109.106548958000118, -7.236860508999937, 0.0 ], [ 109.106097111000068, -7.236749284999953, 0.0 ], [ 109.105824613000038, -7.23668672199994, 0.0 ], [ 109.105686973000118, -7.236640841999899, 0.0 ], [ 109.105554895000168, -7.236614425999973, 0.0 ], [ 109.105435329000031, -7.236615816999966, 0.0 ], [ 109.105325495000102, -7.236647793999961, 0.0 ], [ 109.105244858000034, -7.236732601999957, 0.0 ], [ 109.105215662000077, -7.236807677999963, 0.0 ], [ 109.105221223000058, -7.236950878999982, 0.0 ], [ 109.105258761000087, -7.23712049499991, 0.0 ], [ 109.105297689000039, -7.237273427999955, 0.0 ], [ 109.105269883000133, -7.237456947999957, 0.0 ], [ 109.105189246000137, -7.237634905999935, 0.0 ], [ 109.105069680000085, -7.237760032999939, 0.0 ], [ 109.104897283000071, -7.2378740369999, 0.0 ], [ 109.104744351000107, -7.237951893999963, 0.0 ], [ 109.104556660000142, -7.238049214999978, 0.0 ], [ 109.104378702000162, -7.238160438999912, 0.0 ], [ 109.104274430000146, -7.238186853999959, 0.0 ], [ 109.104153474000015, -7.238168780999975, 0.0 ], [ 109.104031127000056, -7.238139583999942, 0.0 ], [ 109.103900439000157, -7.238095094999982, 0.0 ], [ 109.103825363000027, -7.238075629999963, 0.0 ], [ 109.103760019000092, -7.238065897999974, 0.0 ], [ 109.103715529000084, -7.238072850000012, 0.0 ], [ 109.103684943000076, -7.23809092399995, 0.0 ], [ 109.103682162000126, -7.238124290999947, 0.0 ], [ 109.103711359000016, -7.238179902999926, 0.0 ], [ 109.103878194000103, -7.238359250999968, 0.0 ], [ 109.103964393000069, -7.2384593529999, 0.0 ], [ 109.103994979000063, -7.238552502999895, 0.0 ], [ 109.104021395000075, -7.238672068999956, 0.0 ], [ 109.104028347000039, -7.238799975999962, 0.0 ], [ 109.104000541000119, -7.238904248999939, 0.0 ], [ 109.103933806000057, -7.238964031, 0.0 ], [ 109.103723871000156, -7.239039107999881, 0.0 ], [ 109.103441641000146, -7.23912947699996, 0.0 ], [ 109.10332068500017, -7.239186478999978, 0.0 ], [ 109.103242828000134, -7.239233748999943, 0.0 ], [ 109.103210851000085, -7.239279629, 0.0 ], [ 109.103163581000075, -7.23935748599996, 0.0 ], [ 109.103134385000104, -7.239458977999957, 0.0 ], [ 109.103063479000056, -7.239536834999969, 0.0 ], [ 109.102963378000155, -7.239620251999959, 0.0 ], [ 109.102800713000136, -7.239706450999909, 0.0 ], [ 109.102707563000152, -7.239743989, 0.0 ], [ 109.10263804800006, -7.239796819999962, 0.0 ], [ 109.102562972000044, -7.239853822999985, 0.0 ], [ 109.102508750000069, -7.239931678999904, 0.0 ], [ 109.10244340600012, -7.240027609999969, 0.0 ], [ 109.102385013000131, -7.240058196999939, 0.0 ], [ 109.102266838000048, -7.240077660999928, 0.0 ], [ 109.102200104000062, -7.240070708999942, 0.0 ], [ 109.102127808000134, -7.240052634999927, 0.0 ], [ 109.102058293000127, -7.240020658999974, 0.0 ], [ 109.102015194000103, -7.239991461999954, 0.0 ], [ 109.102001291000121, -7.239942801999961, 0.0 ], [ 109.102043, -7.23986355499991, 0.0 ], [ 109.102118076000167, -7.239774575999908, 0.0 ], [ 109.102233471000091, -7.239617472, 0.0 ], [ 109.102383623000023, -7.239418658999985, 0.0 ], [ 109.102457309000116, -7.239282409999928, 0.0 ], [ 109.102465651000045, -7.239186478999978, 0.0 ], [ 109.102464260000076, -7.239111402999958, 0.0 ], [ 109.10244757700012, -7.239044668999951, 0.0 ], [ 109.102412819000122, -7.238982104999908, 0.0 ], [ 109.102373891000042, -7.238962640999958, 0.0 ], [ 109.102325231000094, -7.238979324999958, 0.0 ], [ 109.102290473000096, -7.239027984999938, 0.0 ], [ 109.102261277000139, -7.239097499999925, 0.0 ], [ 109.102244593000123, -7.23916006399998, 0.0 ], [ 109.102148663000037, -7.239318557999982, 0.0 ], [ 109.102004072000142, -7.239440903999929, 0.0 ], [ 109.101841407000137, -7.239495125999959, 0.0 ], [ 109.101660668000051, -7.239522931999923, 0.0 ], [ 109.101509125000064, -7.239538224999944, 0.0 ], [ 109.101382608000108, -7.239557688999934, 0.0 ], [ 109.101275555000058, -7.239571591999903, 0.0 ], [ 109.101206040000093, -7.239584104999974, 0.0 ], [ 109.101112890000095, -7.239584104999974, 0.0 ], [ 109.1009933240001, -7.239593836999974, 0.0 ], [ 109.100896003000116, -7.239617472, 0.0 ], [ 109.100818147000012, -7.239664741999936, 0.0 ], [ 109.100762535000115, -7.239734256999936, 0.0 ], [ 109.100677727000061, -7.239859383999903, 0.0 ], [ 109.10060265000007, -7.240059586999966, 0.0 ], [ 109.100522013000059, -7.240265350999958, 0.0 ], [ 109.100467791000099, -7.240436357999928, 0.0 ], [ 109.100406618000093, -7.240621267999893, 0.0 ], [ 109.100323200000091, -7.240779761999958, 0.0 ], [ 109.100191122000055, -7.24104252799997, 0.0 ], [ 109.1000646050001, -7.241301123999941, 0.0 ], [ 109.09999926100015, -7.241419298999959, 0.0 ], [ 109.099961028000138, -7.241500631999926, 0.0 ], [ 109.099944344000122, -7.241566670999946, 0.0 ], [ 109.099913062000127, -7.241728640999915, 0.0 ], [ 109.099885256000064, -7.24187462199996, 0.0 ], [ 109.099870658000029, -7.241984455999918, 0.0 ], [ 109.09985745000003, -7.24210402099995, 0.0 ], [ 109.099856060000121, -7.242241660999986, 0.0 ], [ 109.099872048000137, -7.242366092999927, 0.0 ], [ 109.099879000000101, -7.242503036999921, 0.0 ], [ 109.099881780000132, -7.242617041999911, 0.0 ], [ 109.099870658000029, -7.242717837999953, 0.0 ], [ 109.099844242000103, -7.242838098999912, 0.0 ], [ 109.09982686400015, -7.242926382999939, 0.0 ], [ 109.099819912000058, -7.242997982999978, 0.0 ], [ 109.099810180000134, -7.24304872899995, 0.0 ], [ 109.099790021000032, -7.243084876999941, 0.0 ], [ 109.099752483000145, -7.243089742999935, 0.0 ], [ 109.099718420000059, -7.243075839999952, 0.0 ], [ 109.099693395000102, -7.243061241999944, 0.0 ], [ 109.09965863800015, -7.243044557999931, 0.0 ], [ 109.099629441000062, -7.24302648499996, 0.0 ], [ 109.099582866000105, -7.242981299999893, 0.0 ], [ 109.099463301000029, -7.242899271999899, 0.0 ], [ 109.099362504000155, -7.242858953999882, 0.0 ], [ 109.099281171000186, -7.242839488999913, 0.0 ], [ 109.099207486000154, -7.242829756999975, 0.0 ], [ 109.099153264000037, -7.242822805999942, 0.0 ], [ 109.099044821000135, -7.242802645999986, 0.0 ], [ 109.098944719000173, -7.242766498999949, 0.0 ], [ 109.09889049700007, -7.242728264999916, 0.0 ], [ 109.098821678000107, -7.242644847999901, 0.0 ], [ 109.09878066400006, -7.242571161999932, 0.0 ], [ 109.098752163000157, -7.24249886599994, 0.0 ], [ 109.098723662000054, -7.242425874999959, 0.0 ], [ 109.098724357000094, -7.242333420999956, 0.0 ], [ 109.098750077000105, -7.24217562199998, 0.0 ], [ 109.098775103, -7.242017823, 0.0 ], [ 109.098813336000021, -7.241930233999927, 0.0 ], [ 109.098864777000045, -7.241799545999941, 0.0 ], [ 109.098896754000094, -7.241710566999914, 0.0 ], [ 109.098912047000084, -7.241659820999941, 0.0 ], [ 109.098916218000141, -7.241518704999974, 0.0 ], [ 109.098907876000069, -7.241399835, 0.0 ], [ 109.09886269100015, -7.241071028999935, 0.0 ], [ 109.098859911000119, -7.24105921199992, 0.0 ], [ 109.098766761000064, -7.241074505, 0.0 ], [ 109.098643719000052, -7.241081456999966, 0.0 ], [ 109.098542923000096, -7.24109396899993, 0.0 ], [ 109.098452553000072, -7.241091883999916, 0.0 ], [ 109.098385819000057, -7.241094663999918, 0.0 ], [ 109.098355232000074, -7.241092578999904, 0.0 ], [ 109.098311438000053, -7.241084932, 0.0 ], [ 109.098264863000097, -7.241080065999884, 0.0 ], [ 109.098230801000128, -7.241080760999961, 0.0 ], [ 109.098196738000055, -7.241090492999911, 0.0 ], [ 109.098164761000135, -7.241114128999886, 0.0 ], [ 109.098145992000084, -7.241144019999965, 0.0 ], [ 109.098111235, -7.241158617999923, 0.0 ], [ 109.098080648000135, -7.241144714999928, 0.0 ], [ 109.098063965000122, -7.241123860999912, 0.0 ], [ 109.098050062000056, -7.241068248999959, 0.0 ], [ 109.098049367000073, -7.240959804999925, 0.0 ], [ 109.098062574000068, -7.240882643999917, 0.0 ], [ 109.098120967000128, -7.240776286, 0.0 ], [ 109.098166847000158, -7.240678964999963, 0.0 ], [ 109.098196738000055, -7.240584424999929, 0.0 ], [ 109.098271814000128, -7.240429405999967, 0.0 ], [ 109.098311438000053, -7.240333475999881, 0.0 ], [ 109.098337854000121, -7.240261874999927, 0.0 ], [ 109.098348976000082, -7.240178456999957, 0.0 ], [ 109.098330902000029, -7.240081136999947, 0.0 ], [ 109.098232191000122, -7.239908738999934, 0.0 ], [ 109.098139041000124, -7.239764147999901, 0.0 ], [ 109.098107064000061, -7.239721048999916, 0.0 ], [ 109.098093161000079, -7.239655704999936, 0.0 ], [ 109.098118186000164, -7.239447159999937, 0.0 ], [ 109.098125138000128, -7.238906333999952, 0.0 ], [ 109.097936057000126, -7.238888259999912, 0.0 ], [ 109.097563457000064, -7.238857673999947, 0.0 ], [ 109.097315984000119, -7.238829867999894, 0.0 ], [ 109.097084499000147, -7.238802756999942, 0.0 ], [ 109.096926005000142, -7.238766608999965, 0.0 ], [ 109.09676125500016, -7.238731155999925, 0.0 ], [ 109.096645860000152, -7.238699179999933, 0.0 ], [ 109.096619444000027, -7.238730460999925, 0.0 ], [ 109.096580516000074, -7.238815268999907, 0.0 ], [ 109.09653880700003, -7.238889649999977, 0.0 ], [ 109.096479024000075, -7.238930663999936, 0.0 ], [ 109.09640394800013, -7.238998788999948, 0.0 ], [ 109.096284382000135, -7.239111402999958, 0.0 ], [ 109.096130059000146, -7.23925043299997, 0.0 ], [ 109.096046641000058, -7.239363046999929, 0.0 ], [ 109.095963223000169, -7.239524321999936, 0.0 ], [ 109.095877025000078, -7.239700889999889, 0.0 ], [ 109.09582697400009, -7.239830187999925, 0.0 ], [ 109.095743556000016, -7.239973388, 0.0 ], [ 109.095692115000119, -7.240040122999976, 0.0 ], [ 109.095632332000022, -7.240070708999942, 0.0 ], [ 109.095597575000085, -7.240055415999959, 0.0 ], [ 109.095576720000068, -7.239997022999923, 0.0 ], [ 109.095541963000116, -7.239927508999889, 0.0 ], [ 109.095494693000106, -7.239878847999917, 0.0 ], [ 109.095436300000117, -7.239866334999923, 0.0 ], [ 109.095364005000135, -7.239881628999987, 0.0 ], [ 109.09518604600008, -7.24001092599993, 0.0 ], [ 109.095102628000163, -7.24006375800001, 0.0 ], [ 109.095037284000057, -7.240141614999985, 0.0 ], [ 109.094960818000075, -7.240261179999914, 0.0 ], [ 109.094873229000058, -7.240377964999944, 0.0 ], [ 109.09480093400002, -7.240487798999902, 0.0 ], [ 109.094749492000133, -7.240560093999902, 0.0 ], [ 109.094679978000116, -7.240642121999922, 0.0 ], [ 109.094629927000071, -7.240708855999915, 0.0 ], [ 109.094577095000133, -7.240746393999919, 0.0 ], [ 109.094522874000077, -7.240757516999989, 0.0 ], [ 109.094463091000122, -7.240736661999956, 0.0 ], [ 109.094382454000126, -7.240647682999979, 0.0 ], [ 109.094311548000135, -7.240522555999988, 0.0 ], [ 109.094258717000059, -7.240439137999942, 0.0 ], [ 109.094208666000085, -7.240323743999943, 0.0 ], [ 109.094169738000133, -7.240279253999966, 0.0 ], [ 109.09412941900014, -7.240233373999975, 0.0 ], [ 109.094101613000092, -7.240184713999944, 0.0 ], [ 109.09406824600012, -7.240148565999928, 0.0 ], [ 109.09392087400002, -7.240072099999959, 0.0 ], [ 109.093688694000051, -7.239960875999924, 0.0 ], [ 109.093531591000144, -7.239903872999952, 0.0 ], [ 109.09343983100014, -7.239873286999923, 0.0 ], [ 109.093370316000048, -7.239852431999942, 0.0 ], [ 109.093303582000061, -7.239846870999896, 0.0 ], [ 109.09327299500012, -7.239832968, 0.0 ], [ 109.093242409000169, -7.239705060999908, 0.0 ], [ 109.09320626100012, -7.239479832000035, 0.0 ], [ 109.093114501000102, -7.239385291999912, 0.0 ], [ 109.092894834, -7.239324118999964, 0.0 ], [ 109.092622335000115, -7.239293531999981, 0.0 ], [ 109.092385984000074, -7.239293531999981, 0.0 ], [ 109.092068996000066, -7.239265725999915, 0.0 ], [ 109.091701957000069, -7.239162843999931, 0.0 ], [ 109.0914072140001, -7.23902103399993, 0.0 ], [ 109.091295990000106, -7.238987666999946, 0.0 ], [ 109.091042956000052, -7.238940395999962, 0.0 ], [ 109.090681478000164, -7.23887922299995, 0.0 ], [ 109.090567474000153, -7.238837513999915, 0.0 ], [ 109.09053688700007, -7.238795804999905, 0.0 ], [ 109.09049517800004, -7.238648433999986, 0.0 ], [ 109.090459030000048, -7.238595602, 0.0 ], [ 109.09038395400006, -7.238567795999929, 0.0 ], [ 109.090283853000159, -7.238542770999958, 0.0 ] ] ] } },
{ "type": "Feature", "properties": { "id": 2833, "type": "Jalan Kabupaten", "kondisi": "Rusak", "status": "Jalan Kabupaten", "ruas": "Paingan - Dukuh Rembang", "id_ruas": 103, "kode_ruas": null, "panjang_m": 857.35745729799999, "sumber": "Peta RBI/RTRW Provinsi Jawa Tengah/RTRW Kabupaten Brebes/Digitasi Tahun 2026", "lebar_m": 0, "perkerasan": "Aspal" }, "geometry": { "type": "MultiLineString", "coordinates": [ [ [ 109.119145312000043, -7.236942365999941, 0.0 ], [ 109.119223965000074, -7.236906910999954, 0.0 ], [ 109.119360909000065, -7.23685755499997, 0.0 ], [ 109.119474914000079, -7.236806113999934, 0.0 ], [ 109.119650787000069, -7.236706707999931, 0.0 ], [ 109.119855856000072, -7.236592702999953, 0.0 ], [ 109.119952482000087, -7.236548212999924, 0.0 ], [ 109.12004980200004, -7.23653083499994, 0.0 ], [ 109.120181881000065, -7.23650858999997, 0.0 ], [ 109.120243054000056, -7.236498162999957, 0.0 ], [ 109.120279202000063, -7.236483564999961, 0.0 ], [ 109.120314654000083, -7.236454367999967, 0.0 ], [ 109.120338985000046, -7.236372340999939, 0.0 ], [ 109.120356363000042, -7.236186040999935, 0.0 ], [ 109.120363315000077, -7.236053266999956, 0.0 ], [ 109.120306313000071, -7.235791890999971, 0.0 ], [ 109.120256957000038, -7.235647299999926, 0.0 ], [ 109.120222895000055, -7.235548588999975, 0.0 ], [ 109.120199260000049, -7.235481853999951, 0.0 ], [ 109.120188137000071, -7.235426241999984, 0.0 ], [ 109.120189527000036, -7.235353946999957, 0.0 ], [ 109.120206211000038, -7.235173207999935, 0.0 ], [ 109.120261823000078, -7.234860390999926, 0.0 ], [ 109.120271555000045, -7.234714408999928, 0.0 ], [ 109.120278507000066, -7.234656016999972, 0.0 ], [ 109.120314654000083, -7.234580940999952, 0.0 ], [ 109.120354973000076, -7.234521157999954, 0.0 ], [ 109.120377218000058, -7.234422446999925, 0.0 ], [ 109.120388340000034, -7.234158289999922, 0.0 ], [ 109.120368876000043, -7.233914988, 0.0 ], [ 109.12031326400006, -7.233691149, 0.0 ], [ 109.120277116000068, -7.233571583999946, 0.0 ], [ 109.120282678000081, -7.23349233699997, 0.0 ], [ 109.120311874000038, -7.233399186999975, 0.0 ], [ 109.120353583000039, -7.233318548999944, 0.0 ], [ 109.120435610000072, -7.233282401999933, 0.0 ], [ 109.120535712000049, -7.233278230999926, 0.0 ], [ 109.120749818000036, -7.233365819999966, 0.0 ], [ 109.120908312000026, -7.233421430999953, 0.0 ], [ 109.121069587000079, -7.233465920999956, 0.0 ], [ 109.121205836000058, -7.23352431399998, 0.0 ], [ 109.121307328000057, -7.233595218999967, 0.0 ], [ 109.121357378000084, -7.233604950999968, 0.0 ], [ 109.121410210000079, -7.233564631999972, 0.0 ], [ 109.121425503000069, -7.233513190999923, 0.0 ], [ 109.121429674000069, -7.233363038999921, 0.0 ], [ 109.12137684300005, -7.233207324999972, 0.0 ], [ 109.121262838000064, -7.233098881999982, 0.0 ], [ 109.121079319000046, -7.232934826999959, 0.0 ], [ 109.12101814600004, -7.232793015999942, 0.0 ], [ 109.12096809500008, -7.232615057999964, 0.0 ], [ 109.120965314000046, -7.232489930999972, 0.0 ], [ 109.120887457000038, -7.232403732999951, 0.0 ], [ 109.120740086000069, -7.232298069999974, 0.0 ], [ 109.120539883000049, -7.232197968999983, 0.0 ], [ 109.120425878000049, -7.232106208999937, 0.0 ], [ 109.120350057000053, -7.232024229999976, 0.0 ] ] ] } },
{ "type": "Feature", "properties": { "id": 2820, "type": "Jalan Desa", "kondisi": "Baik", "status": "Jalan Desa", "ruas": "Igir Gowok Kulon - Igir Gowok Tengah", "id_ruas": 17, "kode_ruas": null, "panjang_m": 347.65211087400002, "sumber": "Peta RBI/RTRW Provinsi Jawa Tengah/RTRW Kabupaten Brebes/Digitasi Tahun 2026", "lebar_m": 0, "perkerasan": "Aspal" }, "geometry": { "type": "MultiLineString", "coordinates": [ [ [ 109.109537469000088, -7.234958878999981, 0.0 ], [ 109.109773820000044, -7.234953317999974, 0.0 ], [ 109.110021293000045, -7.234921340999965, 0.0 ], [ 109.110136688000068, -7.234881022999973, 0.0 ], [ 109.110246522000068, -7.23480872699998, 0.0 ], [ 109.110370258000046, -7.234771188999964, 0.0 ], [ 109.110595487000055, -7.234721137999941, 0.0 ], [ 109.111013967000076, -7.234698893999963, 0.0 ], [ 109.111301759000071, -7.234701673999977, 0.0 ], [ 109.111456082000075, -7.234697502999945, 0.0 ], [ 109.11167296800005, -7.234669696999968, 0.0 ], [ 109.111838414000033, -7.234629378999963, 0.0 ], [ 109.112028885000086, -7.234586278999948, 0.0 ], [ 109.112191550000034, -7.23455708299997, 0.0 ], [ 109.112347263000075, -7.234555692999944, 0.0 ], [ 109.112601688000041, -7.234583498999959, 0.0 ] ] ] } },
{ "type": "Feature", "properties": { "id": 2821, "type": "Jalan Desa", "kondisi": "Baik", "status": "Jalan Desa", "ruas": "Dukuh Rendeh - Igir Gowok Tengah", "id_ruas": 7, "kode_ruas": null, "panjang_m": 218.53030672, "sumber": "Peta RBI/RTRW Provinsi Jawa Tengah/RTRW Kabupaten Brebes/Digitasi Tahun 2026", "lebar_m": 0, "perkerasan": "Aspal" }, "geometry": { "type": "MultiLineString", "coordinates": [ [ [ 109.112410522000047, -7.232736486999955, 0.0 ], [ 109.112411912000084, -7.232869955999934, 0.0 ], [ 109.112459182000066, -7.23311464799997, 0.0 ], [ 109.112577358000067, -7.233487247999965, 0.0 ], [ 109.112670508000065, -7.233769478999932, 0.0 ], [ 109.112733071000036, -7.233964120999923, 0.0 ], [ 109.112746974000061, -7.234068392999972, 0.0 ], [ 109.112766438000051, -7.234144859999958, 0.0 ], [ 109.112781732000087, -7.234292230999928, 0.0 ], [ 109.112752535000084, -7.23436730699996, 0.0 ], [ 109.112611768000079, -7.234586974999965, 0.0 ] ] ] } },
{ "type": "Feature", "properties": { "id": 2822, "type": "Jalan Desa", "kondisi": "Sebagian Rusak", "status": "Jalan Desa", "ruas": "Igir Gowok Tengah - Paingan", "id_ruas": 20, "kode_ruas": null, "panjang_m": 965.72382145799997, "sumber": "Peta RBI/RTRW Provinsi Jawa Tengah/RTRW Kabupaten Brebes/Digitasi Tahun 2026", "lebar_m": 0, "perkerasan": "Aspal" }, "geometry": { "type": "MultiLineString", "coordinates": [ [ [ 109.112611417000053, -7.23458648299995, 0.0 ], [ 109.112957949000076, -7.23469110299993, 0.0 ], [ 109.113176226000064, -7.234771739999944, 0.0 ], [ 109.113350014000048, -7.234844035999988, 0.0 ], [ 109.113494605000085, -7.234933014999977, 0.0 ], [ 109.113559949000035, -7.234999748999957, 0.0 ], [ 109.113646147000054, -7.235130436999957, 0.0 ], [ 109.113785177000068, -7.235316737999953, 0.0 ], [ 109.113935329000071, -7.235458547999953, 0.0 ], [ 109.114081311000064, -7.235612870999961, 0.0 ], [ 109.114289856000084, -7.23583670899998, 0.0 ], [ 109.114440008000088, -7.23599242299998, 0.0 ], [ 109.114554012000042, -7.236128671999949, 0.0 ], [ 109.114612405000059, -7.236239895999971, 0.0 ], [ 109.114715287000067, -7.236406731999973, 0.0 ], [ 109.114822340000046, -7.236591641999951, 0.0 ], [ 109.114904368000055, -7.236700084999942, 0.0 ], [ 109.115018372000065, -7.236812698999914, 0.0 ], [ 109.115404875000081, -7.237122735999947, 0.0 ], [ 109.115774695000098, -7.237450845999964, 0.0 ], [ 109.115872016000083, -7.237506457999944, 0.0 ], [ 109.116290496000033, -7.237660780999926, 0.0 ], [ 109.116521285000033, -7.23769692899998, 0.0 ], [ 109.116642241000079, -7.237684415999985, 0.0 ], [ 109.116778490000058, -7.237664951999945, 0.0 ], [ 109.116931423000025, -7.237656609999932, 0.0 ], [ 109.117025964000049, -7.237662171999943, 0.0 ], [ 109.117134407000037, -7.237708050999982, 0.0 ], [ 109.11735546400007, -7.237916595999942, 0.0 ], [ 109.117576522000036, -7.238171020999983, 0.0 ], [ 109.117668282000068, -7.238343417999941, 0.0 ], [ 109.117686356000036, -7.238369833999968, 0.0 ], [ 109.117871265000076, -7.238482447999979, 0.0 ], [ 109.118003344000044, -7.238557523999922, 0.0 ], [ 109.118095103000087, -7.238604793999965, 0.0 ], [ 109.118202156000052, -7.238624257999954, 0.0 ], [ 109.118291136000039, -7.23865067399993, 0.0 ], [ 109.118362041000054, -7.238686821999984, 0.0 ], [ 109.118388456000048, -7.238690992999977, 0.0 ], [ 109.118438507000064, -7.238675698999927, 0.0 ], [ 109.118656784000066, -7.238419883999949, 0.0 ], [ 109.118836133000073, -7.238234974999963, 0.0 ], [ 109.119037726000045, -7.238058406999922, 0.0 ], [ 109.119107241000066, -7.238025039999976, 0.0 ], [ 109.119311415519107, -7.237948797198587, 0.0 ] ] ] } },
{ "type": "Feature", "properties": { "id": 2823, "type": "Jalan Desa", "kondisi": "Baik", "status": "Jalan Desa", "ruas": "Igir Gowok Wetan - Igir Gowok Kidul", "id_ruas": 18, "kode_ruas": null, "panjang_m": 536.97473283099998, "sumber": "Peta RBI/RTRW Provinsi Jawa Tengah/RTRW Kabupaten Brebes/Digitasi Tahun 2026", "lebar_m": 0, "perkerasan": "Aspal" }, "geometry": { "type": "MultiLineString", "coordinates": [ [ [ 109.113703845000089, -7.235195781999955, 0.0 ], [ 109.113639196000065, -7.235242356999946, 0.0 ], [ 109.113500166000065, -7.235318127999966, 0.0 ], [ 109.113282584000046, -7.23542239999995, 0.0 ], [ 109.113099065000085, -7.23550651299997, 0.0 ], [ 109.113005915000087, -7.235551002999948, 0.0 ], [ 109.112857153000064, -7.235614956999941, 0.0 ], [ 109.112783467000057, -7.235644847999944, 0.0 ], [ 109.112734806000063, -7.235651799999983, 0.0 ], [ 109.112524871000076, -7.235680995999922, 0.0 ], [ 109.112380280000082, -7.235692812999962, 0.0 ], [ 109.112200237000081, -7.235712972999981, 0.0 ], [ 109.112148795000053, -7.23572687599995, 0.0 ], [ 109.112081366000027, -7.235757462, 0.0 ], [ 109.111994472000035, -7.235790133999964, 0.0 ], [ 109.111874211000043, -7.235820025999947, 0.0 ], [ 109.111694863000082, -7.235865209999933, 0.0 ], [ 109.111393168000063, -7.235936810999938, 0.0 ], [ 109.111226332000058, -7.235989641999937, 0.0 ], [ 109.111062972000056, -7.236037606999954, 0.0 ], [ 109.111005970000079, -7.236052205999966, 0.0 ], [ 109.11092880800004, -7.236064022999918, 0.0 ], [ 109.110878062000026, -7.236070278999938, 0.0 ], [ 109.110714702000053, -7.23606958399995, 0.0 ], [ 109.110648663000077, -7.236075840999937, 0.0 ], [ 109.110600698000027, -7.236088352999952, 0.0 ], [ 109.110543695000047, -7.236174551999965, 0.0 ], [ 109.110478351000026, -7.236370583999932, 0.0 ], [ 109.110442204000037, -7.236465123999953, 0.0 ], [ 109.110413703000063, -7.236510308999931, 0.0 ], [ 109.110358091000094, -7.236523516999977, 0.0 ], [ 109.110134948000052, -7.23653046799996, 0.0 ], [ 109.110039017000091, -7.236540199999974, 0.0 ], [ 109.109809618000057, -7.23654159099994, 0.0 ], [ 109.109468299000071, -7.236535333999941, 0.0 ], [ 109.109409212000045, -7.23653324899994, 0.0 ], [ 109.109335526000038, -7.236497795999989, 0.0 ] ] ] } },
{ "type": "Feature", "properties": { "id": 2824, "type": "Jalan Desa", "kondisi": "Baik", "status": "Jalan Desa", "ruas": "Igir Gowok Tengah - Muntuk", "id_ruas": 19, "kode_ruas": null, "panjang_m": 144.91842104700001, "sumber": "Peta RBI/RTRW Provinsi Jawa Tengah/RTRW Kabupaten Brebes/Digitasi Tahun 2026", "lebar_m": 0, "perkerasan": "Beton" }, "geometry": { "type": "MultiLineString", "coordinates": [ [ [ 109.111897499000065, -7.234610812999984, 0.0 ], [ 109.111893328000065, -7.234716475999961, 0.0 ], [ 109.111889852000061, -7.234750537999957, 0.0 ], [ 109.11187108300004, -7.234767221999959, 0.0 ], [ 109.111834935000061, -7.234801283999968, 0.0 ], [ 109.111805739000033, -7.234836736999971, 0.0 ], [ 109.111786275000043, -7.234874969999962, 0.0 ], [ 109.111764725000057, -7.234991754999953, 0.0 ], [ 109.111747347000076, -7.235128699999964, 0.0 ], [ 109.111743176000061, -7.235296925999954, 0.0 ], [ 109.111742481000078, -7.235421357999933, 0.0 ], [ 109.111748737000084, -7.235687599999963, 0.0 ], [ 109.111757774000068, -7.235859996999972, 0.0 ] ] ] } },
{ "type": "Feature", "properties": { "id": 2825, "type": "Jalan Desa", "kondisi": "Baik", "status": "Jalan Desa", "ruas": "Igir Gowok Wetan - Kali", "id_ruas": 22, "kode_ruas": null, "panjang_m": 178.759267397, "sumber": "Peta RBI/RTRW Provinsi Jawa Tengah/RTRW Kabupaten Brebes/Digitasi Tahun 2026", "lebar_m": 0, "perkerasan": "Aspal" }, "geometry": { "type": "MultiLineString", "coordinates": [ [ [ 109.114667669000085, -7.236347991999932, 0.0 ], [ 109.114894983000056, -7.236379272999963, 0.0 ], [ 109.11503401300007, -7.236395956999963, 0.0 ], [ 109.115162616000077, -7.236401518, 0.0 ], [ 109.115348221000033, -7.236402212999971, 0.0 ], [ 109.115434419000053, -7.236408469999957, 0.0 ], [ 109.115468481000036, -7.23641611599994, 0.0 ], [ 109.115506019000065, -7.236440446999953, 0.0 ], [ 109.115621414000088, -7.236487716999933, 0.0 ], [ 109.115649915000063, -7.236498143999946, 0.0 ], [ 109.115841081000042, -7.236505790999959, 0.0 ], [ 109.115847338000037, -7.236537766999963, 0.0 ], [ 109.115976636000084, -7.236534291999936, 0.0 ], [ 109.116041980000034, -7.236528730999955, 0.0 ], [ 109.116222719000064, -7.236544718999938, 0.0 ] ] ] } },
{ "type": "Feature", "properties": { "id": 2826, "type": "Jalan Desa", "kondisi": "Baik", "status": "Jalan Desa", "ruas": "Dukuh Warni - Igir Gowok Wetan", "id_ruas": 10, "kode_ruas": null, "panjang_m": 372.32570774599998, "sumber": "Peta RBI/RTRW Provinsi Jawa Tengah/RTRW Kabupaten Brebes/Digitasi Tahun 2026", "lebar_m": 0, "perkerasan": "Aspal" }, "geometry": { "type": "MultiLineString", "coordinates": [ [ [ 109.113822368000058, -7.235346976999952, 0.0 ], [ 109.113894663000067, -7.23527815699994, 0.0 ], [ 109.113989203000074, -7.235197518999934, 0.0 ], [ 109.114098342000048, -7.235125223999958, 0.0 ], [ 109.114213042000074, -7.235055013999959, 0.0 ], [ 109.114326351000059, -7.234977156999945, 0.0 ], [ 109.114429233000067, -7.234888872999932, 0.0 ], [ 109.114501529000052, -7.234806844999988, 0.0 ], [ 109.114552275000051, -7.234671290999945, 0.0 ], [ 109.114576605000082, -7.234551725999951, 0.0 ], [ 109.11457521400007, -7.234447452999988, 0.0 ], [ 109.11456339700004, -7.234313984999975, 0.0 ], [ 109.114539067000067, -7.234251420999958, 0.0 ], [ 109.114478589000043, -7.234138111999934, 0.0 ], [ 109.114388914000088, -7.233978226999966, 0.0 ], [ 109.11435068100009, -7.233897589999978, 0.0 ], [ 109.114228335000064, -7.233623700999947, 0.0 ], [ 109.11412892900006, -7.233457559999984, 0.0 ], [ 109.113993374000074, -7.233251100999965, 0.0 ], [ 109.113896053000076, -7.23312597399996, 0.0 ], [ 109.113815416000065, -7.2330363, 0.0 ], [ 109.113751462000039, -7.232986248999961, 0.0 ], [ 109.113727132000065, -7.232957052999957, 0.0 ], [ 109.113681947000089, -7.232861121999981, 0.0 ], [ 109.113642324000068, -7.232679687999959, 0.0 ], [ 109.113638217829404, -7.232629240157548, 0.0 ] ] ] } },
{ "type": "Feature", "properties": { "id": 2827, "type": "Jalan Desa", "kondisi": "Baik", "status": "Jalan Desa", "ruas": "Igir Gowok Tengah - Dukuh Rendeh", "id_ruas": 21, "kode_ruas": null, "panjang_m": 131.51970902599999, "sumber": "Peta RBI/RTRW Provinsi Jawa Tengah/RTRW Kabupaten Brebes/Digitasi Tahun 2026", "lebar_m": 0, "perkerasan": "Beton" }, "geometry": { "type": "MultiLineString", "coordinates": [ [ [ 109.111652806000052, -7.234672681999937, 0.0 ], [ 109.111556181000083, -7.234662253999944, 0.0 ], [ 109.11154644800007, -7.234652522000019, 0.0 ], [ 109.111522118000039, -7.234471782999946, 0.0 ], [ 109.111508910000055, -7.234304947999936, 0.0 ], [ 109.111509606000084, -7.234243773999945, 0.0 ], [ 109.111501264000083, -7.234211797999941, 0.0 ], [ 109.11148944600005, -7.234206931999946, 0.0 ], [ 109.111447737000049, -7.23420623599998, 0.0 ], [ 109.111429663000081, -7.234195808999979, 0.0 ], [ 109.111422712000035, -7.234181905999946, 0.0 ], [ 109.111428968000041, -7.234047046999939, 0.0 ], [ 109.111449128000061, -7.233843367999961, 0.0 ], [ 109.111467897000068, -7.233814171999932, 0.0 ], [ 109.111582596000062, -7.233711289999974, 0.0 ] ] ] } },
{ "type": "Feature", "properties": { "id": 2828, "type": "Jalan Desa", "kondisi": "Baik", "status": "Jalan Desa", "ruas": "Muntuk 1", "id_ruas": 23, "kode_ruas": null, "panjang_m": 70.204285167600005, "sumber": "Peta RBI/RTRW Provinsi Jawa Tengah/RTRW Kabupaten Brebes/Digitasi Tahun 2026", "lebar_m": 0, "perkerasan": "Beton" }, "geometry": { "type": "MultiLineString", "coordinates": [ [ [ 109.111745261000067, -7.235417186999939, 0.0 ], [ 109.111572864000038, -7.235419271999953, 0.0 ], [ 109.111419236000074, -7.235424137999922, 0.0 ], [ 109.111362234000069, -7.235429698999967, 0.0 ], [ 109.111344855000084, -7.235431784999947, 0.0 ], [ 109.111331647000043, -7.235433869999948, 0.0 ], [ 109.11111545600005, -7.235442906999936, 0.0 ] ] ] } },
{ "type": "Feature", "properties": { "id": 2829, "type": "Jalan Desa", "kondisi": "Baik", "status": "Jalan Desa", "ruas": "Dukuh Warni 1", "id_ruas": 11, "kode_ruas": null, "panjang_m": 223.31573805599999, "sumber": "Peta RBI/RTRW Provinsi Jawa Tengah/RTRW Kabupaten Brebes/Digitasi Tahun 2026", "lebar_m": 0, "perkerasan": "Aspal" }, "geometry": { "type": "MultiLineString", "coordinates": [ [ [ 109.114365278000037, -7.233929961999929, 0.0 ], [ 109.114460787000041, -7.233904757999931, 0.0 ], [ 109.114614662000065, -7.233870931999954, 0.0 ], [ 109.114891239000087, -7.233843075999965, 0.0 ], [ 109.115095521000057, -7.23383113699998, 0.0 ], [ 109.11511674500008, -7.233816544999973, 0.0 ], [ 109.115120725000054, -7.233792004999936, 0.0 ], [ 109.115096847000075, -7.233581089999973, 0.0 ], [ 109.115074297000035, -7.23349221399997, 0.0 ], [ 109.115038481000056, -7.233387419999934, 0.0 ], [ 109.114998686000035, -7.233270686999963, 0.0 ], [ 109.11492572800006, -7.232860795999958, 0.0 ], [ 109.114866035000034, -7.232615391999972, 0.0 ] ] ] } },
{ "type": "Feature", "properties": { "id": 2830, "type": "Jalan Desa", "kondisi": "Baik", "status": "Jalan Desa", "ruas": "Dukuh Warni 4", "id_ruas": 14, "kode_ruas": null, "panjang_m": 218.832877532, "sumber": "Peta RBI/RTRW Provinsi Jawa Tengah/RTRW Kabupaten Brebes/Digitasi Tahun 2026", "lebar_m": 0, "perkerasan": "Aspal" }, "geometry": { "type": "MultiLineString", "coordinates": [ [ [ 109.114571550000051, -7.234521584999928, 0.0 ], [ 109.114875321000056, -7.234546124999953, 0.0 ], [ 109.115198989000078, -7.234556073999951, 0.0 ], [ 109.115826427000059, -7.234567348999976, 0.0 ], [ 109.11584367200004, -7.234567348999976, 0.0 ], [ 109.115851631000055, -7.234536839999979, 0.0 ], [ 109.115847651000081, -7.234410820999941, 0.0 ], [ 109.115817142000083, -7.234075214999964, 0.0 ], [ 109.11581581500009, -7.233882870999939, 0.0 ] ] ] } },
{ "type": "Feature", "properties": { "id": 2831, "type": "Jalan Desa", "kondisi": "Baik", "status": "Jalan Desa", "ruas": "Dukuh Warni 3", "id_ruas": 13, "kode_ruas": null, "panjang_m": 92.403157123499994, "sumber": "Peta RBI/RTRW Provinsi Jawa Tengah/RTRW Kabupaten Brebes/Digitasi Tahun 2026", "lebar_m": 0, "perkerasan": "Aspal" }, "geometry": { "type": "MultiLineString", "coordinates": [ [ [ 109.11511674500008, -7.233816544999973, 0.0 ], [ 109.115139093000039, -7.233934103999969, 0.0 ], [ 109.115158557000072, -7.234105110999964, 0.0 ], [ 109.115157167000064, -7.23414820999995, 0.0 ], [ 109.115158557000072, -7.234180186999933, 0.0 ], [ 109.115196096000034, -7.234202431999967, 0.0 ], [ 109.11525726900004, -7.23422606699995, 0.0 ], [ 109.115290636000054, -7.234255262999966, 0.0 ], [ 109.115301758000044, -7.234303923999976, 0.0 ], [ 109.115297935000058, -7.234516291999959, 0.0 ], [ 109.115300345000037, -7.23455789499997, 0.0 ] ] ] } },
{ "type": "Feature", "properties": { "id": 2832, "type": "Jalan Desa", "kondisi": "Baik", "status": "Jalan Desa", "ruas": "Dukuh Warni 2", "id_ruas": 12, "kode_ruas": null, "panjang_m": 180.50721574299999, "sumber": "Peta RBI/RTRW Provinsi Jawa Tengah/RTRW Kabupaten Brebes/Digitasi Tahun 2026", "lebar_m": 0, "perkerasan": "Aspal" }, "geometry": { "type": "MultiLineString", "coordinates": [ [ [ 109.115127919000088, -7.233875324999929, 0.0 ], [ 109.115286291000075, -7.233872582999949, 0.0 ], [ 109.115511520000041, -7.23387675399993, 0.0 ], [ 109.11581581500009, -7.233882870999939, 0.0 ], [ 109.115990130000057, -7.233894827999969, 0.0 ], [ 109.116090231000044, -7.233914291999958, 0.0 ], [ 109.116272361000085, -7.233932365999985, 0.0 ], [ 109.116501760000062, -7.233932365999985, 0.0 ], [ 109.116644961000091, -7.233972684999969, 0.0 ], [ 109.116673462000051, -7.233974074999944, 0.0 ], [ 109.116740132000075, -7.233968171999943, 0.0 ] ] ] } },
{ "type": "Feature", "properties": { "id": 2834, "type": "Jalan Desa", "kondisi": "Baik", "status": "Jalan Desa", "ruas": "Dukuh Warni 5", "id_ruas": 15, "kode_ruas": null, "panjang_m": 148.55606742000001, "sumber": "Peta RBI/RTRW Provinsi Jawa Tengah/RTRW Kabupaten Brebes/Digitasi Tahun 2026", "lebar_m": 0, "perkerasan": "Aspal" }, "geometry": { "type": "MultiLineString", "coordinates": [ [ [ 109.11584367200004, -7.234567348999976, 0.0 ], [ 109.115843453000068, -7.234649064999934, 0.0 ], [ 109.115848319000065, -7.234683127999974, 0.0 ], [ 109.115855966000069, -7.234689383999982, 0.0 ], [ 109.11604991300004, -7.234705371999952, 0.0 ], [ 109.116054779000081, -7.234722055999953, 0.0 ], [ 109.116051998000046, -7.234883330999935, 0.0 ], [ 109.116032534000055, -7.234999420999938, 0.0 ], [ 109.115987349000079, -7.23515026799994, 0.0 ], [ 109.115974837000067, -7.23519197699995, 0.0 ], [ 109.115963714000088, -7.235314322999961, 0.0 ], [ 109.115976227000033, -7.235479768999936, 0.0 ], [ 109.115970666000067, -7.235578479999965, 0.0 ], [ 109.115956763000042, -7.235649384999927, 0.0 ], [ 109.115963714000088, -7.23569665499997, 0.0 ] ] ] } },
{ "type": "Feature", "properties": { "id": 2835, "type": "Jalan Desa", "kondisi": "Baik", "status": "Jalan Desa", "ruas": "Dukuh Rendeh 1", "id_ruas": 8, "kode_ruas": null, "panjang_m": 125.410461138, "sumber": "Peta RBI/RTRW Provinsi Jawa Tengah/RTRW Kabupaten Brebes/Digitasi Tahun 2026", "lebar_m": 0, "perkerasan": "Beton" }, "geometry": { "type": "MultiLineString", "coordinates": [ [ [ 109.112689561000096, -7.233828093999937, 0.0 ], [ 109.112620046000075, -7.233843386999971, 0.0 ], [ 109.112532457000043, -7.233837825999964, 0.0 ], [ 109.112380914000084, -7.233801677999961, 0.0 ], [ 109.112293325000053, -7.233780823999958, 0.0 ], [ 109.112157076000074, -7.233765529999971, 0.0 ], [ 109.112041681000051, -7.233733553999966, 0.0 ], [ 109.111983289000079, -7.233729383000011, 0.0 ], [ 109.111902651000037, -7.23371825999994, 0.0 ], [ 109.111849820000089, -7.233714088999935, 0.0 ], [ 109.111780305000082, -7.233712698999971, 0.0 ], [ 109.111742767000067, -7.233722430999947, 0.0 ], [ 109.111712181000087, -7.233730772999935, 0.0 ], [ 109.111671862000037, -7.233730772999935, 0.0 ], [ 109.111623201000057, -7.233721040999959, 0.0 ], [ 109.111582596000062, -7.233711289999974, 0.0 ] ] ] } },
{ "type": "Feature", "properties": { "id": 2837, "type": "Jalan Desa", "kondisi": "Baik", "status": "Jalan Desa", "ruas": "Dukuh Warni 6", "id_ruas": 16, "kode_ruas": null, "panjang_m": 137.87160625800001, "sumber": "Peta RBI/RTRW Provinsi Jawa Tengah/RTRW Kabupaten Brebes/Digitasi Tahun 2026", "lebar_m": 0, "perkerasan": "Aspal" }, "geometry": { "type": "MultiLineString", "coordinates": [ [ [ 109.114776929000072, -7.232635399999936, 0.0 ], [ 109.114786131000074, -7.232539286999956, 0.0 ], [ 109.114704104000054, -7.232373840999981, 0.0 ], [ 109.114523365000082, -7.232063804999952, 0.0 ], [ 109.114492778000042, -7.232004021999954, 0.0 ], [ 109.114494168000078, -7.23195814199995, 0.0 ], [ 109.114552561000039, -7.231862210999961, 0.0 ], [ 109.114580367000087, -7.231833014999945, 0.0 ], [ 109.11490152600004, -7.231771841999946, 0.0 ] ] ] } },
{ "type": "Feature", "properties": { "id": 2838, "type": "Jalan Desa", "kondisi": "Baik", "status": "Jalan Desa", "ruas": "Paingan 1", "id_ruas": 24, "kode_ruas": null, "panjang_m": 158.19437689099999, "sumber": "Peta RBI/RTRW Provinsi Jawa Tengah/RTRW Kabupaten Brebes/Digitasi Tahun 2026", "lebar_m": 0, "perkerasan": "Aspal" }, "geometry": { "type": "MultiLineString", "coordinates": [ [ [ 109.119231045000049, -7.237510345999958, 0.0 ], [ 109.118617795000034, -7.237680611999973, 0.0 ], [ 109.118256317000089, -7.237822421999973, 0.0 ], [ 109.11787537500004, -7.237928084999963, 0.0 ] ] ] } },
{ "type": "Feature", "properties": { "id": 2839, "type": "Jalan Desa", "kondisi": "Baik", "status": "Jalan Desa", "ruas": "Paingan 2", "id_ruas": 25, "kode_ruas": null, "panjang_m": 84.469543628500006, "sumber": "Peta RBI/RTRW Provinsi Jawa Tengah/RTRW Kabupaten Brebes/Digitasi Tahun 2026", "lebar_m": 0, "perkerasan": "Aspal" }, "geometry": { "type": "MultiLineString", "coordinates": [ [ [ 109.118256317000089, -7.237822421999973, 0.0 ], [ 109.118367541000055, -7.238094920999977, 0.0 ], [ 109.118448178000037, -7.238261756999979, 0.0 ], [ 109.118592764000084, -7.23849491399995, 0.0 ] ] ] } },
{ "type": "Feature", "properties": { "id": 2840, "type": "Jalan Desa", "kondisi": "Baik", "status": "Jalan Desa", "ruas": "Paingan 3", "id_ruas": 26, "kode_ruas": null, "panjang_m": 143.21109944, "sumber": "Peta RBI/RTRW Provinsi Jawa Tengah/RTRW Kabupaten Brebes/Digitasi Tahun 2026", "lebar_m": 0, "perkerasan": "Aspal" }, "geometry": { "type": "MultiLineString", "coordinates": [ [ [ 109.118693486000041, -7.238382044999986, 0.0 ], [ 109.118847194000082, -7.238834559999934, 0.0 ], [ 109.118923660000064, -7.239075081999943, 0.0 ], [ 109.118952857000068, -7.239132083999948, 0.0 ], [ 109.118990395000083, -7.239140425999961, 0.0 ], [ 109.119237868000084, -7.239082032999938, 0.0 ], [ 109.119423958000098, -7.239029019999987, 0.0 ] ] ] } },
{ "type": "Feature", "properties": { "id": 2841, "type": "Jalan Desa", "kondisi": "Baik", "status": "Jalan Desa", "ruas": "Paingan 6", "id_ruas": 29, "kode_ruas": null, "panjang_m": 222.53184673600001, "sumber": "Peta RBI/RTRW Provinsi Jawa Tengah/RTRW Kabupaten Brebes/Digitasi Tahun 2026", "lebar_m": 0, "perkerasan": "Aspal" }, "geometry": { "type": "MultiLineString", "coordinates": [ [ [ 109.119375002155664, -7.238688733905637, 0.0 ], [ 109.119410264999985, -7.238696919999936, 0.0 ], [ 109.119565978000196, -7.238733067999875, 0.0 ], [ 109.119628542000044, -7.238740019999963, 0.0 ], [ 109.119660519000107, -7.238730286999958, 0.0 ], [ 109.119745327000032, -7.238549548999916, 0.0 ], [ 109.119793987000151, -7.238498107999942, 0.0 ], [ 109.119992800000148, -7.238324319999954, 0.0 ], [ 109.120066486000042, -7.238242292999888, 0.0 ], [ 109.120081779000131, -7.238196412999923, 0.0 ], [ 109.119995635109206, -7.238167135056987, 0.0 ], [ 109.119945190535873, -7.238140485093779, 0.0 ], [ 109.119959433000133, -7.238086578999977, 0.0 ], [ 109.119993731540333, -7.237885406873886, 0.0 ], [ 109.120013719012832, -7.237765482039205, 0.0 ], [ 109.12000610473757, -7.237638894713714, 0.0 ], [ 109.119972792283605, -7.237514210957057, 0.0 ], [ 109.119990020000103, -7.237435918999958, 0.0 ], [ 109.120029599746545, -7.237303983923819, 0.0 ] ] ] } },
{ "type": "Feature", "properties": { "id": 2842, "type": "Jalan Desa", "kondisi": "Baik", "status": "Jalan Desa", "ruas": "Paingan 4", "id_ruas": 27, "kode_ruas": null, "panjang_m": 98.718005129199994, "sumber": "Peta RBI/RTRW Provinsi Jawa Tengah/RTRW Kabupaten Brebes/Digitasi Tahun 2026", "lebar_m": 0, "perkerasan": "Aspal" }, "geometry": { "type": "MultiLineString", "coordinates": [ [ [ 109.119158773777968, -7.237193835381468, 0.0 ], [ 109.119183646000067, -7.237194006999962, 0.0 ], [ 109.119385240000042, -7.237195397999916, 0.0 ], [ 109.119668861000036, -7.237199567999943, 0.0 ], [ 109.119862112000078, -7.237238496999978, 0.0 ], [ 109.120035899000072, -7.237282985999976, 0.0 ] ] ] } },
{ "type": "Feature", "properties": { "id": 2843, "type": "Jalan Desa", "kondisi": "Baik", "status": "Jalan Desa", "ruas": "Paingan 5", "id_ruas": 28, "kode_ruas": null, "panjang_m": 275.38045078599998, "sumber": "Peta RBI/RTRW Provinsi Jawa Tengah/RTRW Kabupaten Brebes/Digitasi Tahun 2026", "lebar_m": 0, "perkerasan": "Aspal" }, "geometry": { "type": "MultiLineString", "coordinates": [ [ [ 109.119269845000076, -7.237768895999974, 0.0 ], [ 109.119473524000057, -7.237751516999947, 0.0 ], [ 109.119687630000044, -7.237746650999966, 0.0 ], [ 109.120021218000034, -7.237779768999935, 0.0 ], [ 109.120137218000067, -7.237791313999931, 0.0 ], [ 109.120285284000047, -7.237785752999974, 0.0 ], [ 109.120409716000026, -7.237815644999957, 0.0 ], [ 109.120490353000037, -7.237817729999958, 0.0 ], [ 109.120555697000043, -7.237801045999957, 0.0 ], [ 109.120700289000069, -7.237706505999935, 0.0 ], [ 109.120743388000051, -7.237664101999938, 0.0 ], [ 109.120738522000067, -7.237626563999985, 0.0 ], [ 109.120648152000058, -7.237441653999957, 0.0 ], [ 109.120591845000035, -7.237338771999934, 0.0 ], [ 109.120561954000038, -7.237320002999984, 0.0 ], [ 109.120521635000046, -7.237323478999952, 0.0 ], [ 109.120443083000055, -7.237354064999981, 0.0 ], [ 109.120327688000089, -7.237363101999969, 0.0 ], [ 109.120257478000042, -7.237363101999969, 0.0 ], [ 109.120144864000054, -7.237337381999972, 0.0 ], [ 109.120029600000066, -7.237303983999949, 0.0 ] ] ] } },
{ "type": "Feature", "properties": { "id": 2844, "type": "Jalan Desa", "kondisi": "Baik", "status": "Jalan Desa", "ruas": "Paingan 9", "id_ruas": 32, "kode_ruas": null, "panjang_m": 29.9288669952, "sumber": "Peta RBI/RTRW Provinsi Jawa Tengah/RTRW Kabupaten Brebes/Digitasi Tahun 2026", "lebar_m": 0, "perkerasan": "Aspal" }, "geometry": { "type": "MultiLineString", "coordinates": [ [ [ 109.120667616000048, -7.237482667999928, 0.0 ], [ 109.120613395000078, -7.237502132, 0.0 ], [ 109.12052372100004, -7.237522986999975, 0.0 ], [ 109.12040554500004, -7.237537584999933, 0.0 ] ] ] } },
{ "type": "Feature", "properties": { "id": 2845, "type": "Jalan Desa", "kondisi": "Baik", "status": "Jalan Desa", "ruas": "Paingan 10", "id_ruas": 33, "kode_ruas": null, "panjang_m": 46.800059418700002, "sumber": "Peta RBI/RTRW Provinsi Jawa Tengah/RTRW Kabupaten Brebes/Digitasi Tahun 2026", "lebar_m": 0, "perkerasan": "Aspal" }, "geometry": { "type": "MultiLineString", "coordinates": [ [ [ 109.120081779000103, -7.238196412999961, 0.0 ], [ 109.120167109000093, -7.238230648999937, 0.0 ], [ 109.120271381000066, -7.238286260999929, 0.0 ], [ 109.120440303000066, -7.238409996999966, 0.0 ] ] ] } },
{ "type": "Feature", "properties": { "id": 2846, "type": "Jalan Desa", "kondisi": "Baik", "status": "Jalan Desa", "ruas": "Paingan 7", "id_ruas": 30, "kode_ruas": null, "panjang_m": 72.476557979000006, "sumber": "Peta RBI/RTRW Provinsi Jawa Tengah/RTRW Kabupaten Brebes/Digitasi Tahun 2026", "lebar_m": 0, "perkerasan": "Aspal" }, "geometry": { "type": "MultiLineString", "coordinates": [ [ [ 109.119356382370043, -7.238244288219319, 0.0 ], [ 109.119424689000084, -7.238243856999931, 0.0 ], [ 109.119614813000055, -7.238247331999959, 0.0 ], [ 109.119776783000077, -7.238250807999977, 0.0 ], [ 109.119861591000074, -7.238264015999959, 0.0 ], [ 109.119897043000051, -7.238277223999954, 0.0 ], [ 109.119992800000034, -7.238324319999954, 0.0 ] ] ] } },
{ "type": "Feature", "properties": { "id": 2847, "type": "Jalan Desa", "kondisi": "Baik", "status": "Jalan Desa", "ruas": "Paingan 8", "id_ruas": 31, "kode_ruas": null, "panjang_m": 64.550160193599993, "sumber": "Peta RBI/RTRW Provinsi Jawa Tengah/RTRW Kabupaten Brebes/Digitasi Tahun 2026", "lebar_m": 0, "perkerasan": "Aspal" }, "geometry": { "type": "MultiLineString", "coordinates": [ [ [ 109.119783908000045, -7.238509924999957, 0.0 ], [ 109.119938231000049, -7.23863539999997, 0.0 ], [ 109.119989672000074, -7.238678498999955, 0.0 ], [ 109.120007746000056, -7.238711865999965, 0.0 ], [ 109.120012612000039, -7.238759135999945, 0.0 ], [ 109.12003833200005, -7.238795283999934, 0.0 ], [ 109.120187790000045, -7.238898860999944, 0.0 ] ] ] } },
{ "type": "Feature", "properties": { "id": 2848, "type": "Jalan Desa", "kondisi": "Baik", "status": "Jalan Desa", "ruas": "Dawuhan 7", "id_ruas": 40, "kode_ruas": null, "panjang_m": 128.63111699000001, "sumber": "Peta RBI/RTRW Provinsi Jawa Tengah/RTRW Kabupaten Brebes/Digitasi Tahun 2026", "lebar_m": 0, "perkerasan": "Aspal" }, "geometry": { "type": "MultiLineString", "coordinates": [ [ [ 109.126446866023755, -7.243318897251241, 0.0 ], [ 109.126475396000046, -7.243313977999945, 0.0 ], [ 109.126865742000064, -7.243246672999956, 0.0 ], [ 109.127302296000039, -7.243138229999966, 0.0 ], [ 109.127572014000066, -7.243062458999946, 0.0 ] ] ] } },
{ "type": "Feature", "properties": { "id": 2849, "type": "Jalan Desa", "kondisi": "Baik", "status": "Jalan Desa", "ruas": "Dukuh Cilik 1", "id_ruas": 43, "kode_ruas": null, "panjang_m": 277.08630357800001, "sumber": "Peta RBI/RTRW Provinsi Jawa Tengah/RTRW Kabupaten Brebes/Digitasi Tahun 2026", "lebar_m": 0, "perkerasan": "Aspal" }, "geometry": { "type": "MultiLineString", "coordinates": [ [ [ 109.127506724000057, -7.242389539999982, 0.0 ], [ 109.127559501000079, -7.242368698999949, 0.0 ], [ 109.127641529000073, -7.24235549199996, 0.0 ], [ 109.127888307000035, -7.242353405999954, 0.0 ], [ 109.127973115000088, -7.242318648999982, 0.0 ], [ 109.128135085000054, -7.242224802999956, 0.0 ], [ 109.129356810000047, -7.24155606999994, 0.0 ], [ 109.129718060000059, -7.24132889299994, 0.0 ] ] ] } },
{ "type": "Feature", "properties": { "id": 2850, "type": "Jalan Desa", "kondisi": "Baik", "status": "Jalan Desa", "ruas": "Dukuh Cilik 2", "id_ruas": 44, "kode_ruas": null, "panjang_m": 226.94584670899999, "sumber": "Peta RBI/RTRW Provinsi Jawa Tengah/RTRW Kabupaten Brebes/Digitasi Tahun 2026", "lebar_m": 0, "perkerasan": "Aspal" }, "geometry": { "type": "MultiLineString", "coordinates": [ [ [ 109.128696418000061, -7.240858486999971, 0.0 ], [ 109.128678344000036, -7.240896024999937, 0.0 ], [ 109.128605354000058, -7.240948857, 0.0 ], [ 109.128451726000037, -7.241020456999928, 0.0 ], [ 109.128401675000077, -7.24103783599998, 0.0 ], [ 109.128323818000069, -7.241099703999967, 0.0 ], [ 109.128261950000095, -7.241157401999939, 0.0 ], [ 109.128115969000078, -7.241300601999979, 0.0 ], [ 109.127997793000063, -7.241407654999931, 0.0 ], [ 109.127974853000069, -7.241427119999963, 0.0 ], [ 109.12789282600005, -7.241512622999946, 0.0 ], [ 109.127823311000043, -7.241561978999931, 0.0 ], [ 109.127769784000051, -7.241587699, 0.0 ], [ 109.127725990000044, -7.24160090699996, 0.0 ], [ 109.127713477000057, -7.241618980999936, 0.0 ], [ 109.127668292000067, -7.241726033999965, 0.0 ], [ 109.127632145000049, -7.24180249999996, 0.0 ], [ 109.127608509000083, -7.241898430999973, 0.0 ], [ 109.127636315000075, -7.242065266999925, 0.0 ], [ 109.127652999000077, -7.242193173999969, 0.0 ], [ 109.127698931000054, -7.242355005999983, 0.0 ] ] ] } },
{ "type": "Feature", "properties": { "id": 2851, "type": "Jalan Desa", "kondisi": "Baik", "status": "Jalan Desa", "ruas": "Dukuh Cilik 3", "id_ruas": 45, "kode_ruas": null, "panjang_m": 102.51790466600001, "sumber": "Peta RBI/RTRW Provinsi Jawa Tengah/RTRW Kabupaten Brebes/Digitasi Tahun 2026", "lebar_m": 0, "perkerasan": "Aspal" }, "geometry": { "type": "MultiLineString", "coordinates": [ [ [ 109.128909569000086, -7.241800874999969, 0.0 ], [ 109.128861169000061, -7.241709349999951, 0.0 ], [ 109.128709626000045, -7.24152583099994, 0.0 ], [ 109.12852749700005, -7.241336749999969, 0.0 ], [ 109.128323818000069, -7.241099703999967, 0.0 ] ] ] } },
{ "type": "Feature", "properties": { "id": 2852, "type": "Jalan Desa", "kondisi": "Baik", "status": "Jalan Desa", "ruas": "Dukuh Cilik 4", "id_ruas": 46, "kode_ruas": null, "panjang_m": 171.07070872400001, "sumber": "Peta RBI/RTRW Provinsi Jawa Tengah/RTRW Kabupaten Brebes/Digitasi Tahun 2026", "lebar_m": 0, "perkerasan": "Aspal" }, "geometry": { "type": "MultiLineString", "coordinates": [ [ [ 109.126997568000036, -7.239935985999971, 0.0 ], [ 109.126934910000045, -7.240015270999954, 0.0 ], [ 109.126829247000046, -7.240087566999946, 0.0 ], [ 109.126793099000054, -7.240113981999969, 0.0 ], [ 109.126847321000071, -7.240341991, 0.0 ], [ 109.126912665000077, -7.240589465, 0.0 ], [ 109.126990522000099, -7.240772983999925, 0.0 ], [ 109.127048914000056, -7.240861962999952, 0.0 ], [ 109.127069769000059, -7.240859181999946, 0.0 ], [ 109.127196286000071, -7.240766031999951, 0.0 ], [ 109.127404831000035, -7.240578341999959, 0.0 ] ] ] } },
{ "type": "Feature", "properties": { "id": 2853, "type": "Jalan Desa", "kondisi": "Baik", "status": "Jalan Desa", "ruas": "Dawuhan 6", "id_ruas": 39, "kode_ruas": null, "panjang_m": 96.0155622467, "sumber": "Peta RBI/RTRW Provinsi Jawa Tengah/RTRW Kabupaten Brebes/Digitasi Tahun 2026", "lebar_m": 0, "perkerasan": "Aspal" }, "geometry": { "type": "MultiLineString", "coordinates": [ [ [ 109.126060436000046, -7.242202275999947, 0.0 ], [ 109.12608265700004, -7.241981154, 0.0 ], [ 109.126120195000055, -7.24173507099994, 0.0 ], [ 109.126163294000037, -7.241480645999975, 0.0 ], [ 109.126160513000059, -7.241354128999944, 0.0 ] ] ] } },
{ "type": "Feature", "properties": { "id": 2854, "type": "Jalan Desa", "kondisi": "Baik", "status": "Jalan Desa", "ruas": "Dawuhan 8", "id_ruas": 41, "kode_ruas": null, "panjang_m": 418.11178092900002, "sumber": "Peta RBI/RTRW Provinsi Jawa Tengah/RTRW Kabupaten Brebes/Digitasi Tahun 2026", "lebar_m": 0, "perkerasan": "Aspal" }, "geometry": { "type": "MultiLineString", "coordinates": [ [ [ 109.129204606000087, -7.244208632999977, 0.0 ], [ 109.129141314000037, -7.244430859999969, 0.0 ], [ 109.129096824000044, -7.244606037999971, 0.0 ], [ 109.129048164000039, -7.244786776999942, 0.0 ], [ 109.129048164000039, -7.244839607999954, 0.0 ], [ 109.129087092000077, -7.24491329399996, 0.0 ], [ 109.128949453000075, -7.245372091999964, 0.0 ], [ 109.128739518000089, -7.245292844999938, 0.0 ], [ 109.128412797000067, -7.245177450999977, 0.0 ], [ 109.12809302900007, -7.245057884999941, 0.0 ], [ 109.127464614000075, -7.244809020999984, 0.0 ], [ 109.127128161000073, -7.244642185999974, 0.0 ], [ 109.126971057000048, -7.244547644999948, 0.0 ], [ 109.126865395000038, -7.244498984999955, 0.0 ], [ 109.126787538000087, -7.244471178999966, 0.0 ], [ 109.126704120000056, -7.244439201999969, 0.0 ], [ 109.126612673000068, -7.24441566999996, 0.0 ] ] ] } },
{ "type": "Feature", "properties": { "id": 2855, "type": "Jalan Desa", "kondisi": "Baik", "status": "Jalan Desa", "ruas": "Dukuh Cilik 5", "id_ruas": 47, "kode_ruas": null, "panjang_m": 169.00098127699999, "sumber": "Peta RBI/RTRW Provinsi Jawa Tengah/RTRW Kabupaten Brebes/Digitasi Tahun 2026", "lebar_m": 0, "perkerasan": "Aspal" }, "geometry": { "type": "MultiLineString", "coordinates": [ [ [ 109.128710669000043, -7.240866133999933, 0.0 ], [ 109.128866730000098, -7.240758385999929, 0.0 ], [ 109.129152436000084, -7.240556791999952, 0.0 ], [ 109.129055811000057, -7.240401773999956, 0.0 ], [ 109.129020358000062, -7.240344771999951, 0.0 ], [ 109.12901340600007, -7.240315575999935, 0.0 ], [ 109.129041212000061, -7.240278037999931, 0.0 ], [ 109.129081531000054, -7.24024467, 0.0 ], [ 109.129427715000077, -7.240136921999977, 0.0 ], [ 109.129650163000065, -7.240066016999965, 0.0 ] ] ] } },
{ "type": "Feature", "properties": { "id": 2858, "type": "Jalan Desa", "kondisi": "Baik", "status": "Jalan Desa", "ruas": "Dukuh Cilik 6", "id_ruas": 48, "kode_ruas": null, "panjang_m": 44.171845102799999, "sumber": "Peta RBI/RTRW Provinsi Jawa Tengah/RTRW Kabupaten Brebes/Digitasi Tahun 2026", "lebar_m": 0, "perkerasan": "Aspal" }, "geometry": { "type": "MultiLineString", "coordinates": [ [ [ 109.129718060000059, -7.24132889299994, 0.0 ], [ 109.130036319000055, -7.241093794999926, 0.0 ] ] ] } },
{ "type": "Feature", "properties": { "id": 2817, "type": "Jalan Desa", "kondisi": "Baik", "status": "Jalan Desa", "ruas": "Dawuhan 5", "id_ruas": 38, "kode_ruas": null, "panjang_m": 71.1977820818, "sumber": "Peta RBI/RTRW Provinsi Jawa Tengah/RTRW Kabupaten Brebes/Digitasi Tahun 2026", "lebar_m": 0, "perkerasan": "Aspal" }, "geometry": { "type": "MultiLineString", "coordinates": [ [ [ 109.125313578000103, -7.24194547599997, 0.0 ], [ 109.125267246000078, -7.24257828699997, 0.0 ] ] ] } },
{ "type": "Feature", "properties": { "id": 2818, "type": "Jalan Desa", "kondisi": "Baik", "status": "Jalan Desa", "ruas": "Dawuhan - Igir Klanceng", "id_ruas": 42, "kode_ruas": null, "panjang_m": 340.377806308, "sumber": "Peta RBI/RTRW Provinsi Jawa Tengah/RTRW Kabupaten Brebes/Digitasi Tahun 2026", "lebar_m": 0, "perkerasan": "Aspal" }, "geometry": { "type": "MultiLineString", "coordinates": [ [ [ 109.127217752471452, -7.24526736033329, 0.0 ], [ 109.127241501361993, -7.245199633583355, 0.0 ], [ 109.127213874820939, -7.245138664320108, 0.0 ], [ 109.127154517000079, -7.245048116999904, 0.0 ], [ 109.127020610000045, -7.244901360999913, 0.0 ], [ 109.126845721000038, -7.244821629999882, 0.0 ], [ 109.126702403000138, -7.244754686999966, 0.0 ], [ 109.126685079000083, -7.244746595999914, 0.0 ], [ 109.126650337000058, -7.244697051999886, 0.0 ], [ 109.126633345000073, -7.244578045999909, 0.0 ], [ 109.126617858000131, -7.244469632999826, 0.0 ], [ 109.12658886762631, -7.244084223941925, 0.0 ], [ 109.126559076895376, -7.243688174634269, 0.0 ], [ 109.12648912074178, -7.243401211636991, 0.0 ], [ 109.12630590224434, -7.243044292486107, 0.0 ], [ 109.126243261000127, -7.242850364999875, 0.0 ], [ 109.126181061000125, -7.242669009999869, 0.0 ], [ 109.126179630000138, -7.242612001999925, 0.0 ] ] ] } },
{ "type": "Feature", "properties": { "id": 2836, "type": "Jalan Desa", "kondisi": "Baik", "status": "Jalan Desa", "ruas": "Dukuh Rendeh 2", "id_ruas": 9, "kode_ruas": null, "panjang_m": 43.202085925600002, "sumber": "Peta RBI/RTRW Provinsi Jawa Tengah/RTRW Kabupaten Brebes/Digitasi Tahun 2026", "lebar_m": 0, "perkerasan": "Beton" }, "geometry": { "type": "MultiLineString", "coordinates": [ [ [ 109.112675658000057, -7.233787079999953, 0.0 ], [ 109.112861958000053, -7.233790555999971, 0.0 ], [ 109.112981523000087, -7.233792640999986, 0.0 ], [ 109.113063551000039, -7.233787774999954, 0.0 ] ] ] } },
{ "type": "Feature", "properties": { "id": 2856, "type": "Jalan Desa", "kondisi": "Baik", "status": "Jalan Desa", "ruas": "Dukuh Cilik 7", "id_ruas": 49, "kode_ruas": null, "panjang_m": 183.16172201099999, "sumber": "Peta RBI/RTRW Provinsi Jawa Tengah/RTRW Kabupaten Brebes/Digitasi Tahun 2026", "lebar_m": 0, "perkerasan": "Tanah" }, "geometry": { "type": "MultiLineString", "coordinates": [ [ [ 109.128536534000048, -7.240378833999974, 0.0 ], [ 109.128568511000097, -7.240309318999974, 0.0 ], [ 109.128639416000027, -7.240202960999958, 0.0 ], [ 109.128679735000091, -7.240159861999935, 0.0 ], [ 109.128727700000027, -7.240139702999958, 0.0 ], [ 109.128816679000096, -7.240086871999946, 0.0 ], [ 109.128993247000039, -7.23994923199996, 0.0 ], [ 109.128965441000119, -7.23983731299995, 0.0 ], [ 109.128936940000088, -7.239744162999955, 0.0 ], [ 109.12888549900012, -7.239519629999985, 0.0 ], [ 109.128800691000137, -7.23933749999997, 0.0 ], [ 109.128725615000064, -7.239169273999968, 0.0 ], [ 109.128695723000106, -7.239124089999944, 0.0 ], [ 109.128684858000042, -7.239013922, 0.0 ] ] ] } },
{ "type": "Feature", "properties": { "id": 2859, "type": "Jalan Desa", "kondisi": "Baik", "status": "Jalan Desa", "ruas": "Slemped 2", "id_ruas": 52, "kode_ruas": null, "panjang_m": 376.266546715, "sumber": "Peta RBI/RTRW Provinsi Jawa Tengah/RTRW Kabupaten Brebes/Digitasi Tahun 2026", "lebar_m": 0, "perkerasan": "Aspal" }, "geometry": { "type": "MultiLineString", "coordinates": [ [ [ 109.131726969000056, -7.245805446999948, 0.0 ], [ 109.131766719000041, -7.245526241999908, 0.0 ], [ 109.131805648000068, -7.24534828399993, 0.0 ], [ 109.131834844000068, -7.245228717999971, 0.0 ], [ 109.131876553000041, -7.24522037599997, 0.0 ], [ 109.132068414000059, -7.245249571999973, 0.0 ], [ 109.13228808100007, -7.245266255999974, 0.0 ], [ 109.132499407000083, -7.245278769, 0.0 ], [ 109.132670414000074, -7.245287109999938, 0.0 ], [ 109.13275800200006, -7.245281548999969, 0.0 ], [ 109.132838640000045, -7.245271816999969, 0.0 ], [ 109.132986011000071, -7.245209253999981, 0.0 ], [ 109.133229314000047, -7.244992366999957, 0.0 ], [ 109.133560205000038, -7.244685111, 0.0 ], [ 109.133792385000049, -7.244547471, 0.0 ], [ 109.134194181000055, -7.244340316999963, 0.0 ], [ 109.134294283000088, -7.244283314999982, 0.0 ] ] ] } },
{ "type": "Feature", "properties": { "id": 2862, "type": "Jalan Kolektor Primer 2 (KJP-2)", "kondisi": "Baik", "status": "Jalan Provinsi", "ruas": "Bumiayu - Tewel", "id_ruas": 200, "kode_ruas": null, "panjang_m": 6761.1413600599999, "sumber": "Peta RBI/RTRW Provinsi Jawa Tengah/RTRW Kabupaten Brebes/Digitasi Tahun 2026", "lebar_m": 0, "perkerasan": "Aspal" }, "geometry": { "type": "MultiLineString", "coordinates": [ [ [ 109.108351967000033, -7.225338344999954, 0.0 ], [ 109.108489834000181, -7.225707873999905, 0.0 ], [ 109.108501426000089, -7.226020416999924, 0.0 ], [ 109.108421563000164, -7.226243029999984, 0.0 ], [ 109.108389807000151, -7.226331527999892, 0.0 ], [ 109.108153659000152, -7.227162506999851, 0.0 ], [ 109.108153007000112, -7.227232220999905, 0.0 ], [ 109.10814942900015, -7.227617852999907, 0.0 ], [ 109.108231032000106, -7.228691283999931, 0.0 ], [ 109.108292262000191, -7.22932180999987, 0.0 ], [ 109.108302807367579, -7.229523409794973, 0.0 ], [ 109.108318707826697, -7.229608134503632, 0.0 ], [ 109.108356819000107, -7.229677155999976, 0.0 ], [ 109.108557891000203, -7.229907027999908, 0.0 ], [ 109.108587236000062, -7.229941198999893, 0.0 ], [ 109.108731544311127, -7.230110200775807, 0.0 ], [ 109.108886209276577, -7.230310075500325, 0.0 ], [ 109.108992095291399, -7.230523037260302, 0.0 ], [ 109.109044443433575, -7.230807382850574, 0.0 ], [ 109.109216954356441, -7.231364176725938, 0.0 ], [ 109.109281199803661, -7.231558102797917, 0.0 ], [ 109.109349014442159, -7.23176630563593, 0.0 ], [ 109.109420398272391, -7.232036374460105, 0.0 ], [ 109.109483453989128, -7.232321909780746, 0.0 ], [ 109.109513197251545, -7.232457539058158, 0.0 ], [ 109.109514187000116, -7.232478281999934, 0.0 ], [ 109.109771073000047, -7.232503857999987, 0.0 ], [ 109.109915844000042, -7.232518264999952, 0.0 ], [ 109.1100400790001, -7.232530632999908, 0.0 ], [ 109.110064370000075, -7.2325304079999, 0.0 ], [ 109.110403557000154, -7.232527240999967, 0.0 ], [ 109.110652109000114, -7.232506473999928, 0.0 ], [ 109.110671869000157, -7.232509592999922, 0.0 ], [ 109.110866482000176, -7.232540343999979, 0.0 ], [ 109.111192010000138, -7.232688954999965, 0.0 ], [ 109.111196181000196, -7.232689342999902, 0.0 ], [ 109.111667117000081, -7.232733597999915, 0.0 ], [ 109.112172173000147, -7.232749994999956, 0.0 ], [ 109.112350264000042, -7.232748398999881, 0.0 ], [ 109.112462289000135, -7.232725194999942, 0.0 ], [ 109.112634722000109, -7.232710421999976, 0.0 ], [ 109.113019797999968, -7.232677434999981, 0.0 ], [ 109.113263420000067, -7.232662179999866, 0.0 ], [ 109.11346994000013, -7.232649245999937, 0.0 ], [ 109.113598847000048, -7.232633479999897, 0.0 ], [ 109.11384600100007, -7.232606863999811, 0.0 ], [ 109.113886290000096, -7.232604725999988, 0.0 ], [ 109.114363792000177, -7.232624738999974, 0.0 ], [ 109.114719580000155, -7.232639655999935, 0.0 ], [ 109.114834279000107, -7.232631143999987, 0.0 ], [ 109.1151636310002, -7.232606684999886, 0.0 ], [ 109.115366075000054, -7.232589928999913, 0.0 ], [ 109.115494471000048, -7.232579293999943, 0.0 ], [ 109.115631465678405, -7.232588845648029, 0.0 ], [ 109.1157342583939, -7.232717336542303, 0.0 ], [ 109.11588416443719, -7.232952903181911, 0.0 ], [ 109.115958558000159, -7.233079107999978, 0.0 ], [ 109.116129538000109, -7.23344068899997, 0.0 ], [ 109.116271070000096, -7.233725238999974, 0.0 ], [ 109.11644095831258, -7.233862333178318, 0.0 ], [ 109.116731647000051, -7.233962680999988, 0.0 ], [ 109.11677405704944, -7.233990128629401, 0.0 ], [ 109.116907808561848, -7.234043648106986, 0.0 ], [ 109.116969198655738, -7.234152151528865, 0.0 ], [ 109.117022022690151, -7.234501932296675, 0.0 ], [ 109.117009173600707, -7.234973065575852, 0.0 ], [ 109.11704303554599, -7.235301619797606, 0.0 ], [ 109.117055239959598, -7.235420036256976, 0.0 ], [ 109.117093406520382, -7.235525576421425, 0.0 ], [ 109.117159079644182, -7.235745438618326, 0.0 ], [ 109.117166218027066, -7.235913904457571, 0.0 ], [ 109.117141947524829, -7.236105213122367, 0.0 ], [ 109.117127670758919, -7.236307943200079, 0.0 ], [ 109.117116249345941, -7.236572063371804, 0.0 ], [ 109.117130526112007, -7.236801919304934, 0.0 ], [ 109.117156224290909, -7.236916133433176, 0.0 ], [ 109.117263300036143, -7.237066039476608, 0.0 ], [ 109.117341822249273, -7.237093165332002, 0.0 ], [ 109.117463174760587, -7.237061756446729, 0.0 ], [ 109.117725853000081, -7.23695243099992, 0.0 ], [ 109.117800535000072, -7.236939927999984, 0.0 ], [ 109.11833120213555, -7.236816196070891, 0.0 ], [ 109.11846112070657, -7.236781931832411, 0.0 ], [ 109.11866385078423, -7.236736246181181, 0.0 ], [ 109.118907983483382, -7.236700554266066, 0.0 ], [ 109.119037634000179, -7.236691608999942, 0.0 ], [ 109.119117851944111, -7.23672482476838, 0.0 ], [ 109.119137071000125, -7.236770660999982, 0.0 ], [ 109.119145312000043, -7.23694236599989, 0.0 ], [ 109.119160011000076, -7.237216946999983, 0.0 ], [ 109.119227783042433, -7.237580003053771, 0.0 ], [ 109.119293456166304, -7.237876959787404, 0.0 ], [ 109.119350563230455, -7.2381053880439, 0.0 ], [ 109.119383849000144, -7.238899903999941, 0.0 ], [ 109.119420493292182, -7.238997136301003, 0.0 ], [ 109.11944502200015, -7.239062220999863, 0.0 ], [ 109.119618810000134, -7.239271460999939, 0.0 ], [ 109.119958981000138, -7.23959040999995, 0.0 ], [ 109.120024664000141, -7.239623409999928, 0.0 ], [ 109.12022135871166, -7.239756091527404, 0.0 ], [ 109.12030226038604, -7.239798921825644, 0.0 ], [ 109.120409336131274, -7.239836993201716, 0.0 ], [ 109.120775297233934, -7.239964532311618, 0.0 ], [ 109.120995095000069, -7.240004820999962, 0.0 ], [ 109.12121644930437, -7.240047337554599, 0.0 ], [ 109.121316198000045, -7.240099884999955, 0.0 ], [ 109.121588595000105, -7.240319767999897, 0.0 ], [ 109.122180156000127, -7.241009589999982, 0.0 ], [ 109.122570131000131, -7.241322041999981, 0.0 ], [ 109.122602193000148, -7.241347733999889, 0.0 ], [ 109.122986508000039, -7.241564425999979, 0.0 ], [ 109.123270381, -7.241708663999827, 0.0 ], [ 109.123405493000192, -7.241736669999914, 0.0 ], [ 109.123939923000194, -7.24184744899993, 0.0 ], [ 109.124721111000156, -7.241893858999958, 0.0 ], [ 109.124730526000121, -7.24189419599998, 0.0 ], [ 109.125000272000079, -7.241903760999945, 0.0 ], [ 109.125046312000165, -7.241905387999907, 0.0 ], [ 109.125160500000163, -7.24190944099991, 0.0 ], [ 109.125213025606072, -7.241921805678158, 0.0 ], [ 109.125313578000018, -7.24194547599997, 0.0 ], [ 109.125855881000064, -7.242073127999971, 0.0 ], [ 109.126014233000035, -7.242140820999973, 0.0 ], [ 109.126106639000056, -7.242263731999913, 0.0 ], [ 109.126124018000155, -7.242429872999876, 0.0 ], [ 109.126179630000138, -7.242612001999925, 0.0 ], [ 109.126957501999982, -7.242447250999924, 0.0 ], [ 109.127296735000073, -7.242388858999969, 0.0 ], [ 109.127469132000044, -7.242377735999924, 0.0 ], [ 109.12750672400017, -7.242389539999918, 0.0 ], [ 109.127523711000038, -7.242402456999922, 0.0 ], [ 109.127572014000066, -7.242570292999966, 0.0 ], [ 109.127483035000068, -7.242899793999874, 0.0 ], [ 109.127572014000066, -7.243062458999932, 0.0 ], [ 109.127677677000179, -7.243176462999943, 0.0 ], [ 109.127870849000132, -7.243335721999883, 0.0 ], [ 109.12820358100015, -7.243455512999837, 0.0 ], [ 109.128281433000055, -7.243493299999958, 0.0 ], [ 109.128318684000192, -7.243529736999955, 0.0 ], [ 109.128839710000136, -7.24398760799988, 0.0 ], [ 109.128889930000184, -7.2440317359999, 0.0 ], [ 109.129137599000146, -7.244165678999877, 0.0 ], [ 109.129271613000071, -7.2442515869999, 0.0 ], [ 109.129465668000023, -7.244375987999902, 0.0 ], [ 109.129800647000138, -7.244605536999863, 0.0 ], [ 109.129931008000199, -7.244694867999904, 0.0 ], [ 109.130292714937127, -7.245003098495157, 0.0 ], [ 109.13069621700015, -7.245379725999892, 0.0 ], [ 109.131127526000057, -7.24581930899996, 0.0 ], [ 109.131222606000108, -7.24587981399998, 0.0 ], [ 109.13126953600009, -7.245907347999964, 0.0 ], [ 109.131266412000173, -7.245859225999943, 0.0 ], [ 109.131251440000199, -7.245811773999948, 0.0 ], [ 109.131230585000139, -7.245722099999972, 0.0 ], [ 109.1308930900002, -7.244983503999947, 0.0 ], [ 109.13063171400006, -7.244350917999968, 0.0 ], [ 109.13055107700005, -7.244142372999931, 0.0 ], [ 109.130503807000082, -7.243899070999934, 0.0 ], [ 109.130619202000091, -7.243523689999972, 0.0 ], [ 109.1306623010002, -7.243437491999938, 0.0 ], [ 109.130761012000121, -7.24319975099991, 0.0 ], [ 109.130897261000101, -7.242813246999903, 0.0 ], [ 109.130897261000101, -7.242708974999969, 0.0 ], [ 109.130859723000171, -7.242604702999883, 0.0 ], [ 109.130364777000125, -7.242200125999892, 0.0 ], [ 109.130055682000034, -7.241935524999925, 0.0 ], [ 109.129901112000198, -7.241809451999883, 0.0 ], [ 109.129784327000039, -7.24161480999993, 0.0 ], [ 109.129788888000121, -7.241579191999951, 0.0 ], [ 109.129756521000047, -7.24140209399986, 0.0 ], [ 109.129713422000123, -7.241320066999896, 0.0 ], [ 109.129570303000094, -7.241227087999955, 0.0 ], [ 109.129508234000184, -7.241190719999967, 0.0 ], [ 109.129401995000208, -7.241158791999966, 0.0 ], [ 109.128866843000139, -7.240945356999888, 0.0 ], [ 109.128757081000103, -7.240884537999937, 0.0 ], [ 109.128724919000135, -7.240873780999959, 0.0 ], [ 109.128696418000175, -7.240858486999971, 0.0 ], [ 109.12865818500012, -7.240830680999982, 0.0 ], [ 109.128505252000139, -7.24073475099987, 0.0 ], [ 109.128349539000169, -7.240634648999952, 0.0 ], [ 109.128233449000163, -7.240551925999855, 0.0 ], [ 109.128163239, -7.240503265999914, 0.0 ], [ 109.127637421000188, -7.240126206999885, 0.0 ], [ 109.127357561000167, -7.240012490999965, 0.0 ], [ 109.126891184000044, -7.239913376999931, 0.0 ], [ 109.126266176000172, -7.239881801999898, 0.0 ], [ 109.12615773300017, -7.239862337999909, 0.0 ], [ 109.126081266000142, -7.239823409999866, 0.0 ], [ 109.125933895000117, -7.239625986999945, 0.0 ], [ 109.125892186000172, -7.239559947999901, 0.0 ], [ 109.125618222000028, -7.23887385099994, 0.0 ], [ 109.125373920000072, -7.238180164999899, 0.0 ], [ 109.125316669000213, -7.237742744999934, 0.0 ], [ 109.125458920000199, -7.237385635999895, 0.0 ], [ 109.125511341000163, -7.237096199999946, 0.0 ], [ 109.125488705000066, -7.236892599999868, 0.0 ], [ 109.125308214000142, -7.236391888999892, 0.0 ], [ 109.125230240000064, -7.236125451999952, 0.0 ], [ 109.125384987000189, -7.235738954999875, 0.0 ], [ 109.125477550000127, -7.235629566999863, 0.0 ], [ 109.125532637000163, -7.23559138799994, 0.0 ], [ 109.125708909000124, -7.235247572999984, 0.0 ], [ 109.125725111000079, -7.235154261999979, 0.0 ], [ 109.125680408000051, -7.235021787999879, 0.0 ], [ 109.125642214000038, -7.234874196999899, 0.0 ], [ 109.125526505000153, -7.234688178999883, 0.0 ], [ 109.125366076000148, -7.234485845999919, 0.0 ], [ 109.125282261000066, -7.234410466999918, 0.0 ], [ 109.125000492000083, -7.234246386999936, 0.0 ], [ 109.12438968900004, -7.233890706999885, 0.0 ], [ 109.124294716000122, -7.233838165999884, 0.0 ], [ 109.123789504000058, -7.23365209799987, 0.0 ], [ 109.123345332000085, -7.23349450799997, 0.0 ], [ 109.122793479000165, -7.233200520999909, 0.0 ], [ 109.122546211000156, -7.233037303999891, 0.0 ], [ 109.121717893000167, -7.232556209999876, 0.0 ], [ 109.121138443000177, -7.232278508999912, 0.0 ], [ 109.121072212000115, -7.232255388999935, 0.0 ], [ 109.120815764000056, -7.232144896999954, 0.0 ], [ 109.120448214000191, -7.232044859999873, 0.0 ], [ 109.119882874000155, -7.231926041999889, 0.0 ], [ 109.119847286000024, -7.231886366999966, 0.0 ], [ 109.119790924000142, -7.231733971999981, 0.0 ], [ 109.119715571000029, -7.231473909999981, 0.0 ], [ 109.119674092000082, -7.231295518999963, 0.0 ], [ 109.119678318000069, -7.230941395999923, 0.0 ], [ 109.119687909000049, -7.230907784999947, 0.0 ], [ 109.119810853000104, -7.230689911999956, 0.0 ] ] ] } },
{ "type": "Feature", "properties": { "id": 2863, "type": "Jalan Desa", "kondisi": "Baik", "status": "Jalan Desa", "ruas": "Dawuhan 3", "id_ruas": 36, "kode_ruas": null, "panjang_m": 124.69311155699999, "sumber": "Peta RBI/RTRW Provinsi Jawa Tengah/RTRW Kabupaten Brebes/Digitasi Tahun 2026", "lebar_m": 0, "perkerasan": "Aspal" }, "geometry": { "type": "MultiLineString", "coordinates": [ [ [ 109.124953254000047, -7.24190209399998, 0.0 ], [ 109.124973893000075, -7.241760790999937, 0.0 ], [ 109.124994748000063, -7.241635663999944, 0.0 ], [ 109.125015602000076, -7.241484121999968, 0.0 ], [ 109.125015602000076, -7.241411478999959, 0.0 ], [ 109.12501351700007, -7.241373592999946, 0.0 ], [ 109.125061482000035, -7.241105264999936, 0.0 ], [ 109.12515358900005, -7.240993693999948, 0.0 ], [ 109.125204335000035, -7.240901238999927, 0.0 ], [ 109.125227275000057, -7.240869956999981, 0.0 ], [ 109.125239440000058, -7.240857444499984, 0.0 ] ] ] } },
{ "type": "Feature", "properties": { "id": 2864, "type": "Jalan Desa", "kondisi": "Baik", "status": "Jalan Desa", "ruas": "Dawuhan 4", "id_ruas": 37, "kode_ruas": null, "panjang_m": 89.097216142299999, "sumber": "Peta RBI/RTRW Provinsi Jawa Tengah/RTRW Kabupaten Brebes/Digitasi Tahun 2026", "lebar_m": 0, "perkerasan": "Aspal" }, "geometry": { "type": "MultiLineString", "coordinates": [ [ [ 109.125061482000149, -7.241105264999873, 0.0 ], [ 109.124985327163586, -7.241087933356155, 0.0 ], [ 109.124918702255513, -7.241080794973068, 0.0 ], [ 109.124855646538776, -7.241077225781576, 0.0 ], [ 109.124758088637464, -7.241049861980007, 0.0 ], [ 109.12466528965831, -7.24101535979544, 0.0 ], [ 109.124580818792595, -7.240980857610848, 0.0 ], [ 109.12428933481948, -7.240909473780745, 0.0 ] ] ] } },
{ "type": "Feature", "properties": { "id": 2868, "type": "Jalan Desa", "kondisi": "Baik", "status": "Jalan Desa", "ruas": "Dukuh Cilik - Kaliwadas", "id_ruas": 50, "kode_ruas": null, "panjang_m": 2932.28638912, "sumber": "Peta RBI/RTRW Provinsi Jawa Tengah/RTRW Kabupaten Brebes/Digitasi Tahun 2026", "lebar_m": 0, "perkerasan": "Beton" }, "geometry": { "type": "MultiLineString", "coordinates": [ [ [ 109.144277686000152, -7.241946077999941, 0.0 ], [ 109.144528272000102, -7.24191633099997, 0.0 ], [ 109.144766013000051, -7.241912159999989, 0.0 ], [ 109.14502878000016, -7.241945526999897, 0.0 ], [ 109.145228983000067, -7.242008090999965, 0.0 ], [ 109.14533603600006, -7.242056750999907, 0.0 ], [ 109.145526507000113, -7.242106801999955, 0.0 ], [ 109.145668317000116, -7.242097069999941, 0.0 ], [ 109.145856007000162, -7.242026164999967, 0.0 ], [ 109.146033966000076, -7.241974722999938, 0.0 ], [ 109.146203582000126, -7.241942746999947, 0.0 ], [ 109.14635234400015, -7.241935794999947, 0.0 ], [ 109.146598427000043, -7.241966381999942, 0.0 ], [ 109.146779166000115, -7.241995577999946, 0.0 ], [ 109.147001614000089, -7.242055360999944, 0.0 ], [ 109.147143424000021, -7.242091508999986, 0.0 ], [ 109.147267161000102, -7.242110972999962, 0.0 ], [ 109.147520195000141, -7.242163803999922, 0.0 ], [ 109.147744033000038, -7.242204122999945, 0.0 ], [ 109.147974823000098, -7.242243050999924, 0.0 ], [ 109.148202832000052, -7.242270856999938, 0.0 ], [ 109.148651898000082, -7.242312565999987, 0.0 ], [ 109.148920226000044, -7.242312565999987, 0.0 ], [ 109.149203847000095, -7.242309784999955, 0.0 ], [ 109.149353999000184, -7.242312565999987, 0.0 ], [ 109.149520835000061, -7.242304223999948, 0.0 ], [ 109.149632059000112, -7.242262514999926, 0.0 ], [ 109.149734941000176, -7.242222196999934, 0.0 ], [ 109.149843384000064, -7.24221663499996, 0.0 ], [ 109.14998519500007, -7.242248611999956, 0.0 ], [ 109.15015759200007, -7.242319517999948, 0.0 ], [ 109.150279938000025, -7.242408496999912, 0.0 ], [ 109.150463458000047, -7.242471059999938, 0.0 ], [ 109.150699808000098, -7.242491914999919, 0.0 ], [ 109.151022358000034, -7.242512768999973, 0.0 ] ], [ [ 109.126272277548566, -7.239882110246167, 0.0 ], [ 109.126300970811542, -7.239857831331464, 0.0 ], [ 109.12635427073792, -7.239815952817838, 0.0 ], [ 109.126462774159876, -7.239745520772031, 0.0 ], [ 109.126751006000205, -7.239554963999954, 0.0 ], [ 109.126913919966668, -7.239494249689781, 0.0 ], [ 109.127076658000121, -7.239417178999969, 0.0 ], [ 109.127539601000223, -7.239269144999941, 0.0 ], [ 109.127677251057221, -7.239206810800355, 0.0 ], [ 109.127766718791079, -7.23915541444261, 0.0 ], [ 109.127886643625729, -7.239119246635219, 0.0 ], [ 109.12868485800017, -7.239013921999977, 0.0 ], [ 109.129041399000172, -7.238969024999951, 0.0 ], [ 109.129422696000063, -7.238820534999943, 0.0 ], [ 109.129800530000097, -7.238694534999979, 0.0 ], [ 109.129810165000151, -7.23869200699988, 0.0 ], [ 109.130672581000269, -7.238465450999951, 0.0 ], [ 109.130855751000055, -7.2384935439999, 0.0 ], [ 109.13100346700017, -7.238593567999922, 0.0 ], [ 109.131271484000067, -7.238736839999945, 0.0 ], [ 109.131766910000053, -7.23893863899993, 0.0 ], [ 109.13197543400004, -7.238950325999899, 0.0 ], [ 109.13370094400014, -7.238878582999972, 0.0 ], [ 109.134311137000168, -7.238763395999936, 0.0 ], [ 109.135183845000185, -7.238689551999923, 0.0 ], [ 109.13560269900006, -7.238694269999904, 0.0 ], [ 109.135890237000154, -7.238776546999964, 0.0 ], [ 109.136163201000059, -7.238908146999859, 0.0 ], [ 109.136173581000108, -7.238911823999929, 0.0 ], [ 109.136684655000096, -7.239097742999951, 0.0 ], [ 109.136834495000258, -7.239144384999943, 0.0 ], [ 109.137258306000021, -7.239304665999948, 0.0 ], [ 109.137517296000098, -7.239446940999906, 0.0 ], [ 109.137666786000068, -7.239609588999951, 0.0 ], [ 109.137972552000122, -7.240070730999902, 0.0 ], [ 109.137993552000069, -7.240091791999894, 0.0 ], [ 109.138534639000255, -7.240558940999862, 0.0 ], [ 109.138910209000187, -7.240769247999866, 0.0 ], [ 109.139161599000033, -7.240897259999842, 0.0 ], [ 109.139179496000196, -7.240906373999938, 0.0 ], [ 109.139286922000167, -7.240961077999952, 0.0 ], [ 109.139405583000126, -7.24096743199991, 0.0 ], [ 109.139879303, -7.241013236999903, 0.0 ], [ 109.140023935000087, -7.241102196999971, 0.0 ], [ 109.140236915000216, -7.241217763999944, 0.0 ], [ 109.140490379000127, -7.24126822899992, 0.0 ], [ 109.140854691000129, -7.241327255999984, 0.0 ], [ 109.141230686000128, -7.241520411999931, 0.0 ], [ 109.141679459000258, -7.241825595999877, 0.0 ], [ 109.141860268000102, -7.241920001999962, 0.0 ], [ 109.142099922000057, -7.241942651999959, 0.0 ], [ 109.142621228000181, -7.24193600199986, 0.0 ], [ 109.142743801000123, -7.24196904099994, 0.0 ], [ 109.142977759000132, -7.242009560999885, 0.0 ], [ 109.143069007000236, -7.241988812999946, 0.0 ], [ 109.143235690000083, -7.241950904999948, 0.0 ], [ 109.143541947000131, -7.241880276999875, 0.0 ], [ 109.143932994000224, -7.241891319999923, 0.0 ], [ 109.144277686000152, -7.241946077999877, 0.0 ] ] ] } },
{ "type": "Feature", "properties": { "id": 2869, "type": "Jalan Desa", "kondisi": "Baik", "status": "Jalan Desa", "ruas": "Slemped 1", "id_ruas": 51, "kode_ruas": null, "panjang_m": 238.82093715299999, "sumber": "Peta RBI/RTRW Provinsi Jawa Tengah/RTRW Kabupaten Brebes/Digitasi Tahun 2026", "lebar_m": 0, "perkerasan": "Aspal" }, "geometry": { "type": "MultiLineString", "coordinates": [ [ [ 109.132504667000063, -7.246044730999873, 0.0 ], [ 109.132568922000047, -7.245971832999896, 0.0 ], [ 109.132625924000052, -7.245875901999958, 0.0 ], [ 109.132691963000141, -7.245686820999897, 0.0 ], [ 109.13271768400007, -7.245601317999953, 0.0 ], [ 109.132732977000046, -7.245535278999947, 0.0 ], [ 109.132702390000034, -7.245425444999963, 0.0 ], [ 109.132672499000165, -7.245355929999977, 0.0 ], [ 109.132657440000145, -7.245286477999971, 0.0 ] ], [ [ 109.131269536000119, -7.245907347999951, 0.0 ], [ 109.131310870000135, -7.245882861999969, 0.0 ], [ 109.131382765000154, -7.245834623999953, 0.0 ], [ 109.131525089000064, -7.245767499999951, 0.0 ], [ 109.131708635000066, -7.245799499999962, 0.0 ], [ 109.132364474000099, -7.246012220999901, 0.0 ], [ 109.132504666942381, -7.246044731248693, 0.0 ] ] ] } },
{ "type": "Feature", "properties": { "id": 0, "type": "Jalan Desa", "kondisi": "Baik", "status": "Jalan Desa", "ruas": "Guci 1", "id_ruas": 6, "kode_ruas": null, "panjang_m": 151.42190323599999, "sumber": "Peta RBI/RTRW Provinsi Jawa Tengah/RTRW Kabupaten Brebes/Digitasi Tahun 2026", "lebar_m": 0, "perkerasan": "Aspal" }, "geometry": { "type": "MultiLineString", "coordinates": [ [ [ 109.098125138000128, -7.238906333999952, 0.0 ], [ 109.098163252928856, -7.23846162433846, 0.0 ], [ 109.098152557341052, -7.238008915947657, 0.0 ], [ 109.098002819112736, -7.237832076609076, 0.0 ], [ 109.098006384308619, -7.237612795733019, 0.0 ] ] ] } },
{ "type": "Feature", "properties": { "id": 0, "type": "Jalan Desa", "kondisi": "Baik", "status": "Jalan Desa", "ruas": "Kaliwadas 1", "id_ruas": 53, "kode_ruas": null, "panjang_m": 305.44894037500001, "sumber": "Peta RBI/RTRW Provinsi Jawa Tengah/RTRW Kabupaten Brebes/Digitasi Tahun 2026", "lebar_m": 0, "perkerasan": "Aspal" }, "geometry": { "type": "MultiLineString", "coordinates": [ [ [ 109.147421191616814, -7.24214313307205, 0.0 ], [ 109.14734496627068, -7.242715463162683, 0.0 ], [ 109.14730123320075, -7.242738098356841, 0.0 ], [ 109.147063553473245, -7.24272112196135, 0.0 ], [ 109.14687911400452, -7.242687169168458, 0.0 ], [ 109.146789746427004, -7.24266264770538, 0.0 ], [ 109.146679463033308, -7.242630581174703, 0.0 ], [ 109.146420867489667, -7.24260228717511, 0.0 ], [ 109.146158469070443, -7.242579651974171, 0.0 ], [ 109.14581811170045, -7.242534381568933, 0.0 ], [ 109.145711631182536, -7.242517405165771, 0.0 ], [ 109.145694518242109, -7.242490997426279, 0.0 ], [ 109.145707828306897, -7.242383480185263, 0.0 ], [ 109.14577057575498, -7.242221261141463, 0.0 ], [ 109.14580670307349, -7.242091108610592, 0.0 ], [ 109.145817976277698, -7.242040532140163, 0.0 ] ] ] } },
{ "type": "Feature", "properties": { "id": 0, "type": "Jalan Desa", "kondisi": "Baik", "status": "Jalan Desa", "ruas": "Kaliwadas 1", "id_ruas": 54, "kode_ruas": null, "panjang_m": 309.90262659199999, "sumber": "Peta RBI/RTRW Provinsi Jawa Tengah/RTRW Kabupaten Brebes/Digitasi Tahun 2026", "lebar_m": 0, "perkerasan": "Aspal" }, "geometry": { "type": "MultiLineString", "coordinates": [ [ [ 109.147421191616814, -7.24214313307205, 0.0 ], [ 109.147471530725539, -7.241937023998819, 0.0 ], [ 109.147509559482017, -7.241855914403913, 0.0 ], [ 109.147686393199308, -7.241522044522341, 0.0 ], [ 109.147732027707008, -7.241439048581228, 0.0 ], [ 109.147768155025645, -7.241433389766467, 0.0 ], [ 109.14791836861356, -7.241471115196634, 0.0 ], [ 109.14800203187761, -7.241491864181872, 0.0 ], [ 109.148060976450054, -7.241371142799828, 0.0 ], [ 109.148182668470696, -7.24112404112022, 0.0 ], [ 109.148207387162302, -7.24111272348276, 0.0 ], [ 109.148547744532294, -7.241195719483974, 0.0 ], [ 109.148663732239328, -7.241224013571821, 0.0 ], [ 109.148853876021406, -7.241318327185049, 0.0 ], [ 109.148966060852857, -7.241391891789657, 0.0 ], [ 109.14907634424641, -7.241435276038058, 0.0 ], [ 109.149405292989442, -7.241557883674021, 0.0 ] ] ] } },
{ "type": "Feature", "properties": { "id": 0, "type": "Jalan Desa", "kondisi": "Baik", "status": "Jalan Desa", "ruas": "Semangkung 4", "id_ruas": 4, "kode_ruas": null, "panjang_m": 162.086393663, "sumber": "Peta RBI/RTRW Provinsi Jawa Tengah/RTRW Kabupaten Brebes/Digitasi Tahun 2026", "lebar_m": 0, "perkerasan": "Aspal" }, "geometry": { "type": "MultiLineString", "coordinates": [ [ [ 109.109447648991875, -7.232712276332615, 0.0 ], [ 109.109087545945584, -7.23265667969862, 0.0 ], [ 109.108826098245132, -7.232578869475445, 0.0 ], [ 109.108638331260394, -7.232543501187761, 0.0 ], [ 109.108488593031936, -7.232505775011155, 0.0 ], [ 109.108419665910915, -7.232505775011155, 0.0 ], [ 109.108234275723404, -7.232541143301779, 0.0 ], [ 109.108091667886796, -7.232560006389026, 0.0 ], [ 109.108039378346703, -7.232560006389026, 0.0 ], [ 109.108020363968492, -7.23255764850312, 0.0 ] ] ] } },
{ "type": "Feature", "properties": { "id": 0, "type": "Jalan Desa", "kondisi": "Baik", "status": "Jalan Desa", "ruas": "Semangkung 3", "id_ruas": 3, "kode_ruas": null, "panjang_m": 83.187661272100001, "sumber": "Peta RBI/RTRW Provinsi Jawa Tengah/RTRW Kabupaten Brebes/Digitasi Tahun 2026", "lebar_m": 0, "perkerasan": "Aspal" }, "geometry": { "type": "MultiLineString", "coordinates": [ [ [ 109.108020363968492, -7.23255764850312, 0.0 ], [ 109.10801798717128, -7.232498701352688, 0.0 ], [ 109.108051262333177, -7.232267628448538, 0.0 ], [ 109.108051262333177, -7.232218112810814, 0.0 ], [ 109.108084537495017, -7.232178028719182, 0.0 ], [ 109.108110682265064, -7.232175670831367, 0.0 ], [ 109.108177232588801, -7.232175670831367, 0.0 ], [ 109.108196246966941, -7.232147376176172, 0.0 ], [ 109.108227145331625, -7.231928092538134, 0.0 ] ] ] } },
{ "type": "Feature", "properties": { "id": 0, "type": "Jalan Desa", "kondisi": "Baik", "status": "Jalan Desa", "ruas": "Semangkung 2", "id_ruas": 2, "kode_ruas": null, "panjang_m": 131.188944926, "sumber": "Peta RBI/RTRW Provinsi Jawa Tengah/RTRW Kabupaten Brebes/Digitasi Tahun 2026", "lebar_m": 0, "perkerasan": "Aspal" }, "geometry": { "type": "MultiLineString", "coordinates": [ [ [ 109.108227145331625, -7.231928092538134, 0.0 ], [ 109.108540882572044, -7.231968176651955, 0.0 ], [ 109.108688244003147, -7.231975250318743, 0.0 ], [ 109.108937807717183, -7.231989397651951, 0.0 ], [ 109.109225400187555, -7.231977608207639, 0.0 ], [ 109.109401843622138, -7.231966176048697, 0.0 ] ] ] } },
{ "type": "Feature", "properties": { "id": 0, "type": "Jalan Desa", "kondisi": "Baik", "status": "Jalan Desa", "ruas": "Semangkung 5", "id_ruas": 5, "kode_ruas": null, "panjang_m": 68.828347496399999, "sumber": "Peta RBI/RTRW Provinsi Jawa Tengah/RTRW Kabupaten Brebes/Digitasi Tahun 2026", "lebar_m": 0, "perkerasan": "Aspal" }, "geometry": { "type": "MultiLineString", "coordinates": [ [ [ 109.10885553564259, -7.232587630426975, 0.0 ], [ 109.108918793338916, -7.232357228160095, 0.0 ], [ 109.108966329284442, -7.232069565865138, 0.0 ], [ 109.108980321045678, -7.231987654878501, 0.0 ] ] ] } },
{ "type": "Feature", "properties": { "id": 0, "type": "Jalan Desa", "kondisi": "Baik", "status": "Jalan Desa", "ruas": "Semangkung 1", "id_ruas": 1, "kode_ruas": null, "panjang_m": 81.331840873800004, "sumber": "Peta RBI/RTRW Provinsi Jawa Tengah/RTRW Kabupaten Brebes/Digitasi Tahun 2026", "lebar_m": 0, "perkerasan": "Beton" }, "geometry": { "type": "MultiLineString", "coordinates": [ [ [ 109.109106700542242, -7.231008323114788, 0.0 ], [ 109.109553398211659, -7.230997668519587, 0.0 ], [ 109.109837187806505, -7.230997668519587, 0.0 ] ] ] } }
]
}

